{"type": "FeatureCollection", "features": [{"type": "Feature", "geometry": {"type": "Polygon", "coordinates": [[[77.3292712, 28.3856705], [77.3296001, 28.382263], [77.3281245, 28.3821747], [77.3279785, 28.3837348], [77.3272683, 28.3836897], [77.3271973, 28.3843909], [77.3256573, 28.3843115], [77.325487, 28.3844259], [77.3254239, 28.38543], [77.3292712, 28.3856705]]]}, "properties": {"landuse": "construction"}}, {"type": "Feature", "geometry": {"type": "Polygon", "coordinates": [[[77.2929304, 28.3956308], [77.2930476, 28.3960701], [77.2940382, 28.3950932], [77.2950845, 28.3945557], [77.296142, 28.3939273], [77.2967754, 28.394001], [77.2970182, 28.3918041], [77.2962516, 28.3917486], [77.295926, 28.3917937], [77.295711, 28.3919499], [77.2956261, 28.3920697], [77.2954742, 28.3922484], [77.2953361, 28.3923057], [77.2947264, 28.3923699], [77.2941247, 28.3923786], [77.2941414, 28.3927049], [77.2940856, 28.3930707], [77.2939517, 28.3934389], [77.2937285, 28.3937064], [77.2932876, 28.3941384], [77.293109, 28.3944354], [77.2929249, 28.3949312], [77.2929025, 28.395297], [77.2929304, 28.3956308]]]}, "properties": {"landuse": "construction"}}, {"type": "Feature", "geometry": {"type": "Polygon", "coordinates": [[[77.2785885, 28.5579415], [77.2804124, 28.5565892], [77.2798062, 28.5560756], [77.2780038, 28.5574373], [77.2785885, 28.5579415]]]}, "properties": {"landuse": "construction"}}, {"type": "Feature", "geometry": {"type": "Polygon", "coordinates": [[[77.1903966, 28.6451066], [77.1908236, 28.6456401], [77.1915039, 28.645219], [77.1913569, 28.6450386], [77.190465, 28.6449346], [77.1903238, 28.6450218], [77.1903966, 28.6451066]]]}, "properties": {"landuse": "construction"}}, {"type": "Feature", "geometry": {"type": "Polygon", "coordinates": [[[77.1777643, 28.7017566], [77.1780717, 28.7014511], [77.1783749, 28.7015933], [77.1791646, 28.7007287], [77.178286, 28.7001981], [77.1780533, 28.7003947], [77.1778066, 28.7006446], [77.1773243, 28.7010973], [77.1773116, 28.70143], [77.1777643, 28.7017566]]]}, "properties": {"landuse": "construction"}}, {"type": "Feature", "geometry": {"type": "Polygon", "coordinates": [[[77.0966917, 28.4618299], [77.0970136, 28.4618817], [77.0970028, 28.4610753], [77.0972053, 28.4609645], [77.0971155, 28.4590002], [77.0968848, 28.4590049], [77.0964825, 28.4604292], [77.0966917, 28.4618299]]]}, "properties": {"landuse": "construction"}}, {"type": "Feature", "geometry": {"type": "Polygon", "coordinates": [[[77.1458326, 28.5015661], [77.1469994, 28.5038237], [77.1471509, 28.5042048], [77.1472449, 28.5045261], [77.1474427, 28.5051577], [77.147927, 28.5050158], [77.1492617, 28.5049658], [77.1533987, 28.5070146], [77.1532957, 28.5052864], [77.153742, 28.5053552], [77.1536133, 28.5031678], [77.1532957, 28.5017413], [77.1525661, 28.5010436], [77.1511886, 28.5008484], [77.1487338, 28.5000215], [77.147603, 28.5006938], [77.1464494, 28.5008001], [77.1455068, 28.5009359], [77.1458326, 28.5015661]]]}, "properties": {"landuse": "construction"}}, {"type": "Feature", "geometry": {"type": "Polygon", "coordinates": [[[77.2205994, 28.6936491], [77.2210302, 28.6938744], [77.2211927, 28.6939899], [77.221355, 28.6941476], [77.2216167, 28.6945151], [77.2217775, 28.6948888], [77.2224894, 28.6945621], [77.22229, 28.6939061], [77.2221708, 28.693487], [77.2220635, 28.6935205], [77.2216615, 28.69306], [77.221341, 28.6929036], [77.2211987, 28.692887], [77.2209099, 28.6930558], [77.2207044, 28.6932584], [77.2204471, 28.6930576], [77.2199924, 28.6934849], [77.2205994, 28.6936491]]]}, "properties": {"landuse": "construction"}}, {"type": "Feature", "geometry": {"type": "Polygon", "coordinates": [[[77.1200773, 28.5504562], [77.1208635, 28.5502775], [77.122321, 28.5499463], [77.1231321, 28.549762], [77.1228698, 28.5488713], [77.1198149, 28.5495655], [77.1200773, 28.5504562]]]}, "properties": {"landuse": "construction"}}, {"type": "Feature", "geometry": {"type": "Polygon", "coordinates": [[[77.1681009, 28.5878193], [77.1681252, 28.5877821], [77.167944, 28.5876906], [77.1679197, 28.5877278], [77.1681009, 28.5878193]]]}, "properties": {"landuse": "construction"}}, {"type": "Feature", "geometry": {"type": "Polygon", "coordinates": [[[77.0945429, 28.4743553], [77.094543, 28.4742301], [77.0943284, 28.47423], [77.0943282, 28.4743551], [77.0945429, 28.4743553]]]}, "properties": {"landuse": "construction"}}, {"type": "Feature", "geometry": {"type": "Polygon", "coordinates": [[[77.189192, 28.6459766], [77.1892836, 28.6459284], [77.1891902, 28.6457918], [77.1890986, 28.64584], [77.189192, 28.6459766]]]}, "properties": {"landuse": "construction"}}, {"type": "Feature", "geometry": {"type": "Polygon", "coordinates": [[[77.1875947, 28.6055798], [77.1878629, 28.6053224], [77.1876905, 28.605184], [77.1874224, 28.6054414], [77.1875947, 28.6055798]]]}, "properties": {"landuse": "construction"}}, {"type": "Feature", "geometry": {"type": "Polygon", "coordinates": [[[77.2008246, 28.6445833], [77.2009643, 28.6444933], [77.2008924, 28.6444021], [77.2007528, 28.6444917], [77.2008246, 28.6445833]]]}, "properties": {"landuse": "construction"}}, {"type": "Feature", "geometry": {"type": "Polygon", "coordinates": [[[77.2007528, 28.6444917], [77.2008924, 28.6444021], [77.2009234, 28.6443827], [77.20085, 28.6442941], [77.2006798, 28.6444018], [77.2007528, 28.6444917]]]}, "properties": {"landuse": "construction"}}, {"type": "Feature", "geometry": {"type": "Polygon", "coordinates": [[[77.1310027, 28.6071751], [77.1311653, 28.6068769], [77.1310442, 28.6068249], [77.1309564, 28.6069864], [77.1308819, 28.6071228], [77.1310027, 28.6071751]]]}, "properties": {"landuse": "construction"}}, {"type": "Feature", "geometry": {"type": "Polygon", "coordinates": [[[77.2112686, 28.6836023], [77.2121002, 28.6832749], [77.2116786, 28.6824507], [77.210847, 28.6827781], [77.2112686, 28.6836023]]]}, "properties": {"landuse": "construction"}}, {"type": "Feature", "geometry": {"type": "Polygon", "coordinates": [[[77.2404025, 28.5547187], [77.2404899, 28.5546504], [77.2403522, 28.5545146], [77.2402649, 28.5545828], [77.2404025, 28.5547187]]]}, "properties": {"landuse": "construction"}}, {"type": "Feature", "geometry": {"type": "Polygon", "coordinates": [[[77.2354701, 28.5525342], [77.2354369, 28.5525615], [77.235471, 28.5525935], [77.2355042, 28.5525663], [77.2355142, 28.5525757], [77.2355972, 28.5525077], [77.2354211, 28.5523421], [77.2353381, 28.5524102], [77.2354701, 28.5525342]]]}, "properties": {"landuse": "construction"}}, {"type": "Feature", "geometry": {"type": "Polygon", "coordinates": [[[77.298124, 28.6434293], [77.2982361, 28.6433082], [77.2982611, 28.6432812], [77.2981803, 28.6432219], [77.2980406, 28.6433686], [77.298124, 28.6434293]]]}, "properties": {"landuse": "construction"}}, {"type": "Feature", "geometry": {"type": "Polygon", "coordinates": [[[77.298857, 28.6436064], [77.2989783, 28.6434639], [77.2987861, 28.6433378], [77.2986648, 28.6434802], [77.298857, 28.6436064]]]}, "properties": {"landuse": "construction"}}, {"type": "Feature", "geometry": {"type": "Polygon", "coordinates": [[[77.2351076, 28.5524418], [77.2351683, 28.5523954], [77.2351413, 28.5523682], [77.2352699, 28.5522698], [77.2352078, 28.5522072], [77.2351665, 28.5522388], [77.2351906, 28.5522632], [77.2351435, 28.5522993], [77.2351231, 28.5522788], [77.2350224, 28.5523559], [77.2351076, 28.5524418]]]}, "properties": {"landuse": "construction"}}, {"type": "Feature", "geometry": {"type": "Polygon", "coordinates": [[[77.2340507, 28.5490052], [77.2341267, 28.5489646], [77.234013, 28.5488127], [77.233938, 28.548856], [77.2340507, 28.5490052]]]}, "properties": {"landuse": "construction"}}, {"type": "Feature", "geometry": {"type": "Polygon", "coordinates": [[[77.2331196, 28.5487049], [77.2332177, 28.5488264], [77.2332792, 28.5487866], [77.2332127, 28.5487071], [77.2331857, 28.5486749], [77.2331549, 28.5486382], [77.2331343, 28.5486535], [77.2330991, 28.5486782], [77.2331196, 28.5487049]]]}, "properties": {"landuse": "construction"}}, {"type": "Feature", "geometry": {"type": "Polygon", "coordinates": [[[77.2330838, 28.5487989], [77.2331508, 28.5488728], [77.2332177, 28.5488264], [77.2330991, 28.5486782], [77.2330262, 28.5487314], [77.2330838, 28.5487989]]]}, "properties": {"landuse": "construction"}}, {"type": "Feature", "geometry": {"type": "Polygon", "coordinates": [[[77.2332644, 28.5495471], [77.2333328, 28.5494993], [77.2331894, 28.5493399], [77.2331203, 28.549388], [77.2332644, 28.5495471]]]}, "properties": {"landuse": "construction"}}, {"type": "Feature", "geometry": {"type": "Polygon", "coordinates": [[[77.2342827, 28.5484402], [77.2343471, 28.548407], [77.2342592, 28.5482725], [77.2341896, 28.5483076], [77.2342827, 28.5484402]]]}, "properties": {"landuse": "construction"}}, {"type": "Feature", "geometry": {"type": "Polygon", "coordinates": [[[77.2405116, 28.5550024], [77.2405811, 28.5549464], [77.2404405, 28.5548116], [77.2403709, 28.5548677], [77.2405116, 28.5550024]]]}, "properties": {"landuse": "construction"}}, {"type": "Feature", "geometry": {"type": "Polygon", "coordinates": [[[77.18917, 28.5642643], [77.1893768, 28.5642433], [77.1893634, 28.5641416], [77.1891566, 28.5641626], [77.18917, 28.5642643]]]}, "properties": {"landuse": "construction"}}, {"type": "Feature", "geometry": {"type": "Polygon", "coordinates": [[[77.2336901, 28.5471207], [77.2338522, 28.5470386], [77.2338122, 28.5469778], [77.2336501, 28.5470599], [77.2336901, 28.5471207]]]}, "properties": {"landuse": "construction"}}, {"type": "Feature", "geometry": {"type": "Polygon", "coordinates": [[[77.2361181, 28.5634122], [77.2361983, 28.5634097], [77.2361911, 28.5632282], [77.2361109, 28.5632306], [77.2361181, 28.5634122]]]}, "properties": {"landuse": "construction"}}, {"type": "Feature", "geometry": {"type": "Polygon", "coordinates": [[[77.0945156, 28.4761532], [77.0945172, 28.4760135], [77.0942725, 28.4760114], [77.094271, 28.4761511], [77.0945156, 28.4761532]]]}, "properties": {"landuse": "construction"}}, {"type": "Feature", "geometry": {"type": "Polygon", "coordinates": [[[77.2885034, 28.6190437], [77.2886321, 28.6187873], [77.2883314, 28.618671], [77.288252, 28.6188292], [77.2881844, 28.6188031], [77.2882638, 28.6186449], [77.2879861, 28.6185375], [77.2878574, 28.6187939], [77.2885034, 28.6190437]]]}, "properties": {"landuse": "construction"}}, {"type": "Feature", "geometry": {"type": "Polygon", "coordinates": [[[77.2426337, 28.5954922], [77.2429352, 28.59551], [77.2433362, 28.5955332], [77.2433518, 28.5957952], [77.2435258, 28.5958061], [77.2439439, 28.5957843], [77.2439566, 28.5951306], [77.2436111, 28.5951187], [77.2436262, 28.5936384], [77.2432958, 28.5938049], [77.2430029, 28.5943812], [77.2423097, 28.5953802], [77.2426337, 28.5954922]]]}, "properties": {"landuse": "construction"}}, {"type": "Feature", "geometry": {"type": "Polygon", "coordinates": [[[77.2565783, 28.5971735], [77.256648, 28.5973454], [77.256927, 28.5977174], [77.2571898, 28.59792], [77.2583217, 28.5983274], [77.260725, 28.5993919], [77.2610576, 28.5988644], [77.2606284, 28.5986665], [77.2603656, 28.5983887], [77.2597701, 28.5981437], [77.2599204, 28.5972112], [77.2598988, 28.5962833], [77.2592605, 28.5963398], [77.2576914, 28.5961066], [77.2570825, 28.5948043], [77.2565086, 28.5967072], [77.2565783, 28.5971735]]]}, "properties": {"landuse": "construction"}}, {"type": "Feature", "geometry": {"type": "Polygon", "coordinates": [[[77.2110611, 28.6534029], [77.2117585, 28.6531487], [77.2120348, 28.6533911], [77.212598, 28.6531793], [77.2125873, 28.6530404], [77.2126973, 28.6529816], [77.2125953, 28.6527132], [77.2128153, 28.6526473], [77.212413, 28.6519624], [77.2121876, 28.6520565], [77.2120777, 28.6518117], [77.2113106, 28.6520965], [77.2113749, 28.6522848], [77.2112816, 28.6523176], [77.2107044, 28.6525202], [77.2110611, 28.6534029]]]}, "properties": {"landuse": "construction"}}, {"type": "Feature", "geometry": {"type": "Polygon", "coordinates": [[[77.0944726, 28.6087989], [77.0945526, 28.6088001], [77.0945526, 28.6087238], [77.0944704, 28.6087261], [77.0944726, 28.6087989]]]}, "properties": {"landuse": "construction"}}, {"type": "Feature", "geometry": {"type": "Polygon", "coordinates": [[[77.3071969, 28.4990139], [77.3074275, 28.4990092], [77.3074973, 28.4992025], [77.3078138, 28.4991553], [77.3077762, 28.4988017], [77.3079479, 28.4987876], [77.3081732, 28.4994617], [77.3084468, 28.4994853], [77.308436, 28.4999285], [77.309407, 28.499985], [77.3100346, 28.4999756], [77.3100936, 28.4996786], [77.3101473, 28.498566], [77.3098576, 28.4976278], [77.3096055, 28.4970197], [77.3088545, 28.4966944], [77.3085755, 28.4968122], [77.3084199, 28.4967274], [77.3081356, 28.4959401], [77.3080176, 28.4956902], [77.3078996, 28.495742], [77.3078674, 28.4958505], [77.3075187, 28.4959636], [77.3075026, 28.4962936], [77.30739, 28.4962984], [77.3069125, 28.4961899], [77.3067141, 28.4954733], [77.3064351, 28.495478], [77.3063707, 28.4955629], [77.3071969, 28.4990139]]]}, "properties": {"landuse": "construction"}}, {"type": "Feature", "geometry": {"type": "Polygon", "coordinates": [[[77.1614403, 28.5664385], [77.16149, 28.5663713], [77.1613108, 28.5662734], [77.1612667, 28.5663394], [77.1614403, 28.5664385]]]}, "properties": {"landuse": "construction"}}, {"type": "Feature", "geometry": {"type": "Polygon", "coordinates": [[[77.1159179, 28.4065409], [77.1172857, 28.4065196], [77.1182781, 28.4056844], [77.1190828, 28.4054721], [77.1190238, 28.4057599], [77.1190506, 28.4062695], [77.1191847, 28.4062695], [77.1213251, 28.4062129], [77.1213198, 28.4057033], [77.1226555, 28.4056844], [77.1226394, 28.4051182], [77.1198553, 28.4051654], [77.1187395, 28.4043538], [77.1184283, 28.4042924], [77.1174306, 28.4047029], [77.1163791, 28.4047218], [77.1163899, 28.4063167], [77.1158588, 28.4063356], [77.1159179, 28.4065409]]]}, "properties": {"landuse": "construction"}}, {"type": "Feature", "geometry": {"type": "Polygon", "coordinates": [[[77.0614743, 28.6343889], [77.061561, 28.6341829], [77.0619183, 28.6343262], [77.0624935, 28.6332808], [77.0614269, 28.632862], [77.0607853, 28.6341067], [77.0614743, 28.6343889]]]}, "properties": {"landuse": "construction"}}, {"type": "Feature", "geometry": {"type": "Polygon", "coordinates": [[[77.049753, 28.5581027], [77.0500924, 28.5579979], [77.050492, 28.5586069], [77.0525561, 28.5573097], [77.0526152, 28.5571388], [77.0508637, 28.5552331], [77.0504934, 28.5552415], [77.0484671, 28.5564935], [77.049753, 28.5581027]]]}, "properties": {"landuse": "construction"}}, {"type": "Feature", "geometry": {"type": "Polygon", "coordinates": [[[77.0584637, 28.5568744], [77.059913, 28.5559209], [77.0594686, 28.5553807], [77.0586367, 28.5559119], [77.0583675, 28.5555978], [77.0577547, 28.5560637], [77.0584637, 28.5568744]]]}, "properties": {"landuse": "construction"}}, {"type": "Feature", "geometry": {"type": "Polygon", "coordinates": [[[77.0966059, 28.5388194], [77.1082789, 28.5363499], [77.1079624, 28.5352848], [77.0949483, 28.5378533], [77.0966059, 28.5388194]]]}, "properties": {"landuse": "construction"}}, {"type": "Feature", "geometry": {"type": "Polygon", "coordinates": [[[77.256719, 28.5925941], [77.2569309, 28.592613], [77.2571079, 28.5928096], [77.2574922, 28.5916876], [77.2593244, 28.5864584], [77.2603144, 28.5851793], [77.259753, 28.5850727], [77.2592713, 28.5851327], [77.2588806, 28.586072], [77.2583267, 28.5877041], [77.2580072, 28.5876293], [77.2578147, 28.5875842], [77.2573329, 28.5881337], [77.2572912, 28.5894794], [77.2571129, 28.589556], [77.2570192, 28.5899529], [77.2572715, 28.5899752], [77.2572457, 28.5902987], [77.2568208, 28.5902954], [77.2567905, 28.5905685], [77.2571698, 28.5909382], [77.2569498, 28.591631], [77.2567888, 28.5916497], [77.2567552, 28.5925129], [77.2567163, 28.5925576], [77.256719, 28.5925941]]]}, "properties": {"landuse": "construction"}}, {"type": "Feature", "geometry": {"type": "Polygon", "coordinates": [[[77.115782, 28.8548765], [77.1163233, 28.8544575], [77.1182974, 28.8545703], [77.1182716, 28.8549349], [77.1198423, 28.8549461], [77.1198595, 28.8536945], [77.1203745, 28.8536569], [77.1204603, 28.8518527], [77.1190414, 28.8517681], [77.1190276, 28.8510037], [77.1170038, 28.8510286], [77.1157401, 28.8519994], [77.1146812, 28.8525806], [77.115782, 28.8548765]]]}, "properties": {"landuse": "construction"}}, {"type": "Feature", "geometry": {"type": "Polygon", "coordinates": [[[77.1129325, 28.8551187], [77.1130359, 28.8561752], [77.1149415, 28.8561571], [77.1148813, 28.8555738], [77.1136575, 28.8530382], [77.1121186, 28.8537431], [77.1129325, 28.8551187]]]}, "properties": {"landuse": "construction"}}, {"type": "Feature", "geometry": {"type": "Polygon", "coordinates": [[[77.1088782, 28.8545531], [77.1089417, 28.8573169], [77.1105866, 28.8572798], [77.1105662, 28.8552941], [77.1108087, 28.8546416], [77.1110513, 28.8542623], [77.1102371, 28.8532103], [77.1065875, 28.8532861], [77.1061603, 28.8545902], [77.1088782, 28.8545531]]]}, "properties": {"landuse": "construction"}}, {"type": "Feature", "geometry": {"type": "Polygon", "coordinates": [[[77.1175615, 28.8462596], [77.1208336, 28.8462504], [77.1208194, 28.8423794], [77.1175473, 28.8423886], [77.1175615, 28.8462596]]]}, "properties": {"landuse": "construction"}}, {"type": "Feature", "geometry": {"type": "Polygon", "coordinates": [[[77.1833914, 28.731172], [77.1836221, 28.7314731], [77.1839976, 28.7315295], [77.1885704, 28.7303312], [77.1879566, 28.7297091], [77.1862131, 28.730584], [77.1859771, 28.7302453], [77.1874362, 28.7295162], [77.1876081, 28.7292232], [77.1873236, 28.7290693], [77.1870446, 28.7287777], [77.1868837, 28.7288435], [77.1864009, 28.7285001], [77.1851081, 28.7288624], [77.1850222, 28.7288247], [77.1839708, 28.7293986], [77.1838086, 28.7301586], [77.1833783, 28.7301902], [77.1833914, 28.731172]]]}, "properties": {"landuse": "construction"}}, {"type": "Feature", "geometry": {"type": "Polygon", "coordinates": [[[77.1764986, 28.7276018], [77.1767507, 28.7277808], [77.1778556, 28.7263473], [77.1779179, 28.7262636], [77.1794286, 28.7271691], [77.1808172, 28.7252741], [77.1773135, 28.7244147], [77.1762442, 28.7261816], [77.1760688, 28.7260821], [77.1758755, 28.7265147], [77.1757777, 28.7265889], [77.1764986, 28.7276018]]]}, "properties": {"landuse": "construction"}}, {"type": "Feature", "geometry": {"type": "Polygon", "coordinates": [[[77.1668476, 28.5613394], [77.1669921, 28.5610069], [77.166798, 28.5609418], [77.1666535, 28.5612743], [77.1668476, 28.5613394]]]}, "properties": {"landuse": "construction"}}, {"type": "Feature", "geometry": {"type": "Polygon", "coordinates": [[[77.1017289, 28.5350775], [77.1017348, 28.5351517], [77.1017933, 28.5360342], [77.1022385, 28.5359541], [77.1021473, 28.5340218], [77.1007311, 28.5340548], [77.1007231, 28.5350963], [77.1017289, 28.5350775]]]}, "properties": {"landuse": "construction"}}, {"type": "Feature", "geometry": {"type": "Polygon", "coordinates": [[[77.2080275, 28.6774904], [77.2081806, 28.6774792], [77.2081734, 28.6774033], [77.2080203, 28.6774145], [77.2080275, 28.6774904]]]}, "properties": {"landuse": "construction"}}, {"type": "Feature", "geometry": {"type": "Polygon", "coordinates": [[[77.0475483, 28.5505343], [77.0505845, 28.5541436], [77.0514858, 28.553663], [77.0523012, 28.5524002], [77.053653, 28.5504871], [77.0538998, 28.5495353], [77.0545542, 28.5487248], [77.0554125, 28.5479331], [77.0545971, 28.5478955], [77.05405, 28.5475939], [77.052784, 28.547641], [77.0517969, 28.5475939], [77.0505738, 28.5476881], [77.0484173, 28.5483384], [77.0469367, 28.549196], [77.0466471, 28.5493939], [77.0475483, 28.5505343]]]}, "properties": {"landuse": "construction"}}, {"type": "Feature", "geometry": {"type": "Polygon", "coordinates": [[[77.02402, 28.5232855], [77.0242654, 28.5236284], [77.0247924, 28.5243648], [77.0248353, 28.5246146], [77.0252699, 28.5254865], [77.0256025, 28.5258777], [77.0256879, 28.5259919], [77.0260939, 28.5265349], [77.0264554, 28.5270183], [77.026965, 28.5277253], [77.0270294, 28.5279892], [77.0275819, 28.5279892], [77.027716, 28.5279421], [77.0282632, 28.527928], [77.0282471, 28.5273624], [77.0303446, 28.527386], [77.0265841, 28.5232336], [77.0236605, 28.5198824], [77.023446, 28.5203537], [77.0229953, 28.5221543], [77.02402, 28.5232855]]]}, "properties": {"landuse": "construction"}}, {"type": "Feature", "geometry": {"type": "Polygon", "coordinates": [[[77.0265841, 28.5232336], [77.0303446, 28.527386], [77.0320129, 28.5293183], [77.0321534, 28.5294672], [77.033, 28.5303646], [77.0342606, 28.5295351], [77.0306075, 28.525463], [77.0286334, 28.5234127], [77.0274532, 28.5219469], [77.0274264, 28.5214378], [77.0270133, 28.5214143], [77.0269221, 28.5210419], [77.0265573, 28.5210372], [77.0258439, 28.5203113], [77.0256293, 28.5201086], [77.0259082, 28.5198258], [77.023977, 28.5179452], [77.0238697, 28.5183269], [77.0240307, 28.5191377], [77.0238697, 28.5195289], [77.0237734, 28.5196917], [77.0236605, 28.5198824], [77.0265841, 28.5232336]]]}, "properties": {"landuse": "construction"}}, {"type": "Feature", "geometry": {"type": "Polygon", "coordinates": [[[77.0323133, 28.5328059], [77.0340514, 28.5327918], [77.0344216, 28.5354168], [77.0346254, 28.5354121], [77.0355159, 28.5370238], [77.036401, 28.5377873], [77.0369643, 28.5376553], [77.0364654, 28.5365667], [77.03646, 28.5362792], [77.0365834, 28.5354686], [77.0363259, 28.5332018], [77.0372218, 28.5331688], [77.0371842, 28.5316135], [77.0356983, 28.531623], [77.0355105, 28.5312271], [77.0352262, 28.5312082], [77.0344752, 28.530096], [77.0335901, 28.5305343], [77.0335901, 28.5307699], [77.0338207, 28.5311328], [77.0338958, 28.5316465], [77.032131, 28.5316701], [77.0323133, 28.5328059]]]}, "properties": {"landuse": "construction"}}, {"type": "Feature", "geometry": {"type": "Polygon", "coordinates": [[[77.172464, 28.7204344], [77.1724838, 28.7204137], [77.1723303, 28.7203152], [77.1723131, 28.7203337], [77.172464, 28.7204344]]]}, "properties": {"landuse": "construction"}}, {"type": "Feature", "geometry": {"type": "Polygon", "coordinates": [[[77.0382295, 28.6154776], [77.0382389, 28.6154987], [77.0382554, 28.615516], [77.0382773, 28.6155279], [77.0383037, 28.6155332], [77.0383305, 28.6155304], [77.0383548, 28.6155201], [77.0383737, 28.6155032], [77.0383853, 28.6154818], [77.0383881, 28.6154582], [77.0383818, 28.6154351], [77.0383671, 28.6154152], [77.0383458, 28.6154007], [77.0383202, 28.6153932], [77.0382944, 28.6153934], [77.0382701, 28.6154007], [77.0382496, 28.6154145], [77.0382352, 28.6154332], [77.0382282, 28.615455], [77.0382295, 28.6154776]]]}, "properties": {"landuse": "construction"}}, {"type": "Feature", "geometry": {"type": "Polygon", "coordinates": [[[77.0777261, 28.5666786], [77.0777447, 28.5667286], [77.0777764, 28.5667796], [77.0779669, 28.5669701], [77.0780923, 28.5669037], [77.0781803, 28.5668844], [77.0782596, 28.5668766], [77.0783509, 28.5668844], [77.0784489, 28.5669182], [77.078548, 28.5669685], [77.0786328, 28.5670158], [77.0787285, 28.567041], [77.078843, 28.5670439], [77.0789421, 28.5670284], [77.079072, 28.5669772], [77.0807255, 28.5661816], [77.0804379, 28.5652929], [77.0802435, 28.565341], [77.0803015, 28.5655275], [77.0787946, 28.5659056], [77.0787272, 28.5656839], [77.0777293, 28.565901], [77.077702, 28.5659231], [77.0776888, 28.5659548], [77.0777261, 28.5666786]]]}, "properties": {"landuse": "construction"}}, {"type": "Feature", "geometry": {"type": "Polygon", "coordinates": [[[77.0788259, 28.5673513], [77.0808073, 28.566879], [77.0808231, 28.5669298], [77.0813589, 28.5667972], [77.0817745, 28.565832], [77.0791523, 28.5670903], [77.0790357, 28.5671309], [77.0789223, 28.5671609], [77.0788001, 28.5671792], [77.0787296, 28.5672189], [77.0788259, 28.5673513]]]}, "properties": {"landuse": "construction"}}, {"type": "Feature", "geometry": {"type": "Polygon", "coordinates": [[[77.1265238, 28.5538671], [77.1277429, 28.5536031], [77.1273823, 28.552374], [77.126159, 28.5526379], [77.1265238, 28.5538671]]]}, "properties": {"landuse": "construction"}}, {"type": "Feature", "geometry": {"type": "Polygon", "coordinates": [[[77.126013, 28.5523136], [77.127597, 28.5519441], [77.1280734, 28.5535315], [77.1293483, 28.5532261], [77.129344, 28.5525097], [77.1299593, 28.5524863], [77.1287216, 28.5512391], [77.1278373, 28.5506131], [77.1270003, 28.5501607], [77.1260559, 28.5497158], [77.1254206, 28.549482], [77.1252991, 28.549971], [77.126013, 28.5523136]]]}, "properties": {"landuse": "construction"}}, {"type": "Feature", "geometry": {"type": "Polygon", "coordinates": [[[77.1855669, 28.5981634], [77.18538, 28.5982385], [77.1857121, 28.5988755], [77.1870826, 28.5983247], [77.1864001, 28.5970156], [77.1852165, 28.5974914], [77.1855669, 28.5981634]]]}, "properties": {"landuse": "construction"}}, {"type": "Feature", "geometry": {"type": "Polygon", "coordinates": [[[77.1863029, 28.7223445], [77.1866423, 28.7223104], [77.1864478, 28.7209439], [77.1861081, 28.720978], [77.1863029, 28.7223445]]]}, "properties": {"landuse": "construction"}}, {"type": "Feature", "geometry": {"type": "Polygon", "coordinates": [[[77.1706556, 28.7328751], [77.1707113, 28.7327969], [77.1705678, 28.7327197], [77.1705016, 28.7327908], [77.1706556, 28.7328751]]]}, "properties": {"landuse": "construction"}}, {"type": "Feature", "geometry": {"type": "Polygon", "coordinates": [[[77.1707113, 28.7327969], [77.1707636, 28.7328255], [77.1710088, 28.7324807], [77.1708781, 28.7324092], [77.1706288, 28.7327506], [77.1707113, 28.7327969]]]}, "properties": {"landuse": "construction"}}, {"type": "Feature", "geometry": {"type": "Polygon", "coordinates": [[[77.0932892, 28.5022608], [77.0938906, 28.5029551], [77.0940787, 28.5028518], [77.0957715, 28.5018719], [77.09612, 28.5023123], [77.0965616, 28.5019864], [77.0968151, 28.5021774], [77.0971785, 28.5020477], [77.0969599, 28.5018662], [77.0971892, 28.5017413], [77.0969599, 28.5013382], [77.0972268, 28.5013453], [77.0974014, 28.5015624], [77.0974159, 28.501343], [77.0978236, 28.5010884], [77.0980972, 28.5013524], [77.0981347, 28.5010978], [77.0969438, 28.4996222], [77.0958532, 28.5002306], [77.0947132, 28.500935], [77.0930162, 28.5019458], [77.0932892, 28.5022608]]]}, "properties": {"landuse": "construction"}}, {"type": "Feature", "geometry": {"type": "Polygon", "coordinates": [[[77.194308, 28.578052], [77.1944269, 28.5756619], [77.1937717, 28.5756368], [77.1936528, 28.5780269], [77.194308, 28.578052]]]}, "properties": {"landuse": "construction"}}, {"type": "Feature", "geometry": {"type": "Polygon", "coordinates": [[[77.1970706, 28.5794872], [77.1971136, 28.5783494], [77.1936376, 28.5782482], [77.1935946, 28.579386], [77.1970706, 28.5794872]]]}, "properties": {"landuse": "construction"}}, {"type": "Feature", "geometry": {"type": "Polygon", "coordinates": [[[77.1933402, 28.5793905], [77.1934833, 28.5755882], [77.1927814, 28.5755678], [77.1926383, 28.5793702], [77.1933402, 28.5793905]]]}, "properties": {"landuse": "construction"}}, {"type": "Feature", "geometry": {"type": "Polygon", "coordinates": [[[77.1908894, 28.5792244], [77.1910654, 28.5755369], [77.1901468, 28.5755031], [77.1899707, 28.5791906], [77.1908894, 28.5792244]]]}, "properties": {"landuse": "construction"}}, {"type": "Feature", "geometry": {"type": "Polygon", "coordinates": [[[77.1954368, 28.5755813], [77.1955798, 28.5739599], [77.1972086, 28.574009], [77.1972031, 28.5753579], [77.197521, 28.5753489], [77.197518, 28.575084], [77.1987738, 28.5751248], [77.1991127, 28.5702452], [77.1940231, 28.5700575], [77.1938837, 28.5729719], [77.1937618, 28.5755195], [77.1954368, 28.5755813]]]}, "properties": {"landuse": "construction"}}, {"type": "Feature", "geometry": {"type": "Polygon", "coordinates": [[[77.2001392, 28.5782895], [77.2004342, 28.578101], [77.2013515, 28.5780633], [77.201491, 28.5766407], [77.2019416, 28.5766736], [77.2026282, 28.5746055], [77.2028589, 28.57437], [77.2020221, 28.5733901], [77.2015285, 28.5731828], [77.2007561, 28.5731121], [77.2007614, 28.5726033], [77.2005254, 28.5724102], [77.1992594, 28.5723866], [77.1992058, 28.5731498], [77.2000265, 28.5731922], [77.1999836, 28.5740308], [77.2007775, 28.5740685], [77.2012979, 28.5742428], [77.2015768, 28.5744736], [77.2017217, 28.5748646], [77.2017109, 28.5752321], [77.2013783, 28.5756467], [77.2015071, 28.575821], [77.2014105, 28.5758681], [77.2006166, 28.5758869], [77.2005683, 28.5760282], [77.1991199, 28.5760047], [77.1990019, 28.5782282], [77.2001392, 28.5782895]]]}, "properties": {"landuse": "construction"}}, {"type": "Feature", "geometry": {"type": "Polygon", "coordinates": [[[77.198702, 28.5795351], [77.1988764, 28.576669], [77.1973703, 28.5765981], [77.1971952, 28.5794642], [77.198702, 28.5795351]]]}, "properties": {"landuse": "construction"}}, {"type": "Feature", "geometry": {"type": "Polygon", "coordinates": [[[77.1996295, 28.5802209], [77.1996349, 28.5799006], [77.1988571, 28.5798535], [77.198841, 28.5802444], [77.1996295, 28.5802209]]]}, "properties": {"landuse": "construction"}}, {"type": "Feature", "geometry": {"type": "Polygon", "coordinates": [[[77.1986586, 28.5802586], [77.1986693, 28.5798723], [77.1951932, 28.5797404], [77.1951556, 28.5806637], [77.1986586, 28.5802586]]]}, "properties": {"landuse": "construction"}}, {"type": "Feature", "geometry": {"type": "Polygon", "coordinates": [[[77.1910036, 28.5803292], [77.1914166, 28.5809275], [77.194984, 28.5806307], [77.195, 28.5797639], [77.190966, 28.5796085], [77.1910036, 28.5803292]]]}, "properties": {"landuse": "construction"}}, {"type": "Feature", "geometry": {"type": "Polygon", "coordinates": [[[77.199666, 28.5795812], [77.1997136, 28.5784352], [77.1989949, 28.5784122], [77.1989473, 28.5795582], [77.199666, 28.5795812]]]}, "properties": {"landuse": "construction"}}, {"type": "Feature", "geometry": {"type": "Polygon", "coordinates": [[[77.184357, 28.5744877], [77.1843249, 28.5752085], [77.1831286, 28.5754441], [77.1834558, 28.5772955], [77.183767, 28.5773025], [77.1837857, 28.5770599], [77.1845636, 28.5770105], [77.1852475, 28.5774085], [77.1849418, 28.5776959], [77.185269, 28.5780186], [77.1865377, 28.5784261], [77.1892816, 28.5792834], [77.1896383, 28.5793023], [77.1896088, 28.5778561], [77.1881926, 28.5777713], [77.1882462, 28.5762921], [77.1874523, 28.5762732], [77.1874469, 28.575543], [77.1877098, 28.5744689], [77.1882945, 28.5747421], [77.1882462, 28.5738565], [77.1896517, 28.5737999], [77.1895628, 28.5705624], [77.1873227, 28.5707177], [77.1856424, 28.5709444], [77.1853334, 28.5711382], [77.1831071, 28.5735644], [77.184357, 28.5744877]]]}, "properties": {"landuse": "construction"}}, {"type": "Feature", "geometry": {"type": "Polygon", "coordinates": [[[77.2789427, 28.5486057], [77.2781838, 28.550532], [77.2829557, 28.5527669], [77.2852858, 28.5537863], [77.2858826, 28.5537488], [77.2867847, 28.5534598], [77.2877415, 28.5535366], [77.289429, 28.5528493], [77.2900887, 28.5514526], [77.286796, 28.5499833], [77.2871647, 28.5492998], [77.2869622, 28.5491722], [77.2871255, 28.5489114], [77.2868585, 28.5487424], [77.2860685, 28.5485038], [77.2842351, 28.5486877], [77.2839765, 28.5491588], [77.2817163, 28.5482461], [77.281387, 28.5487143], [77.2807905, 28.5485248], [77.2809397, 28.5481596], [77.2794639, 28.5472795], [77.2788272, 28.5473068], [77.2787142, 28.5474486], [77.2784152, 28.5473397], [77.2776835, 28.5475049], [77.2775483, 28.5478525], [77.2789427, 28.5486057]]]}, "properties": {"landuse": "construction"}}, {"type": "Feature", "geometry": {"type": "Polygon", "coordinates": [[[77.2189078, 28.6165247], [77.2190298, 28.6165863], [77.2242672, 28.6162983], [77.2245585, 28.6162014], [77.2247783, 28.6159889], [77.2247022, 28.6144873], [77.2241529, 28.6144856], [77.2239678, 28.614406], [77.2239745, 28.6142903], [77.2220896, 28.6144279], [77.2221012, 28.6146313], [77.220425, 28.6146973], [77.2203791, 28.6145351], [77.218808, 28.6146074], [77.2189078, 28.6165247]]]}, "properties": {"landuse": "construction"}}, {"type": "Feature", "geometry": {"type": "Polygon", "coordinates": [[[77.2061216, 28.6107935], [77.20606, 28.61093], [77.2060701, 28.6109907], [77.2083059, 28.6119891], [77.2084133, 28.6118854], [77.2086012, 28.6117877], [77.2087154, 28.6117477], [77.2085645, 28.6096476], [77.2084952, 28.6095506], [77.2083222, 28.6094501], [77.2081646, 28.6094574], [77.2060606, 28.6106836], [77.2060592, 28.6107272], [77.2061216, 28.6107935]]]}, "properties": {"landuse": "construction"}}, {"type": "Feature", "geometry": {"type": "Polygon", "coordinates": [[[77.2089594, 28.6117298], [77.2090298, 28.611741], [77.2091586, 28.6117734], [77.209255, 28.6118164], [77.2093481, 28.6118732], [77.2113869, 28.6106902], [77.211324, 28.6106484], [77.2113237, 28.6103736], [77.2098035, 28.609705], [77.2096967, 28.6097171], [77.2095757, 28.609659], [77.2095498, 28.6095721], [77.2092482, 28.6094261], [77.2091005, 28.6094332], [77.2089217, 28.6095104], [77.2088216, 28.6096279], [77.2089594, 28.6117298]]]}, "properties": {"landuse": "construction"}}, {"type": "Feature", "geometry": {"type": "Polygon", "coordinates": [[[77.2021562, 28.6173701], [77.2055971, 28.6172452], [77.2055333, 28.6159456], [77.2047706, 28.6159809], [77.2047446, 28.6155974], [77.2038831, 28.6156331], [77.2038736, 28.6155344], [77.203501, 28.6155584], [77.203481, 28.6151303], [77.2020188, 28.6152148], [77.2021562, 28.6173701]]]}, "properties": {"landuse": "construction"}}, {"type": "Feature", "geometry": {"type": "Polygon", "coordinates": [[[77.0527089, 28.5404593], [77.0532346, 28.5405536], [77.0539749, 28.541826], [77.0575261, 28.5459729], [77.0573491, 28.5467975], [77.0565444, 28.547297], [77.0585883, 28.5500913], [77.0597523, 28.5495683], [77.0645642, 28.5553782], [77.0660609, 28.5545583], [77.0669943, 28.5555242], [77.0671767, 28.5554535], [77.0609379, 28.54823], [77.0534277, 28.539465], [77.0526552, 28.5397807], [77.0527089, 28.5404593]]]}, "properties": {"landuse": "construction"}}, {"type": "Feature", "geometry": {"type": "Polygon", "coordinates": [[[77.1056361, 28.446319], [77.1058552, 28.4463053], [77.10597, 28.4463053], [77.1060622, 28.4463297], [77.1061787, 28.4463771], [77.1062639, 28.4464383], [77.1063683, 28.4465881], [77.1064169, 28.4465958], [77.1069717, 28.4464582], [77.1058013, 28.4453419], [77.1051822, 28.4458221], [77.1056361, 28.446319]]]}, "properties": {"landuse": "construction"}}, {"type": "Feature", "geometry": {"type": "Polygon", "coordinates": [[[77.1099359, 28.7372985], [77.1100583, 28.7372157], [77.1100659, 28.7372112], [77.1100241, 28.7371637], [77.1098957, 28.7372495], [77.1099359, 28.7372985]]]}, "properties": {"landuse": "construction"}}, {"type": "Feature", "geometry": {"type": "Polygon", "coordinates": [[[77.3086842, 28.6470101], [77.3093875, 28.6468292], [77.3093496, 28.6467076], [77.3092255, 28.6467401], [77.3092207, 28.6467228], [77.3091626, 28.6467418], [77.309168, 28.6467572], [77.3087066, 28.6468776], [77.3086992, 28.6468742], [77.3087062, 28.6468643], [77.3086041, 28.6467956], [77.3085083, 28.6468882], [77.3086842, 28.6470101]]]}, "properties": {"landuse": "construction"}}, {"type": "Feature", "geometry": {"type": "Polygon", "coordinates": [[[77.2930334, 28.6548507], [77.2930317, 28.6548626], [77.2930649, 28.6548678], [77.2930684, 28.6548481], [77.2931021, 28.6548541], [77.2930931, 28.6548779], [77.2931263, 28.6548845], [77.2931442, 28.6548341], [77.2931066, 28.6548275], [77.2931235, 28.6547517], [77.2931722, 28.6547565], [77.2931552, 28.6547913], [77.2931796, 28.6547998], [77.2932015, 28.6547645], [77.2932057, 28.654729], [77.2931723, 28.6547265], [77.2931791, 28.654669], [77.2931418, 28.6546656], [77.293134, 28.6547123], [77.2931214, 28.6547079], [77.2931153, 28.6547161], [77.2930892, 28.6547058], [77.293113, 28.6546657], [77.2930745, 28.6546635], [77.2930563, 28.6547063], [77.2930677, 28.6547092], [77.2930655, 28.654717], [77.2930408, 28.6547116], [77.2930233, 28.6547939], [77.2930477, 28.6547981], [77.2930403, 28.6548104], [77.293034, 28.6548088], [77.29302, 28.6548475], [77.2930334, 28.6548507]]]}, "properties": {"landuse": "construction"}}, {"type": "Feature", "geometry": {"type": "Polygon", "coordinates": [[[77.2933135, 28.6548041], [77.2933176, 28.6548071], [77.2933217, 28.6548087], [77.2933268, 28.6548088], [77.2933311, 28.6548079], [77.2933375, 28.6548042], [77.2933419, 28.6547969], [77.2933458, 28.6547734], [77.2933851, 28.6547777], [77.2933698, 28.6548371], [77.2933259, 28.6548262], [77.2933229, 28.6548394], [77.2933318, 28.6548403], [77.2933323, 28.654847], [77.2933356, 28.6548529], [77.2933298, 28.6548777], [77.2933434, 28.6548797], [77.2933407, 28.6548878], [77.2933301, 28.6548888], [77.2933184, 28.6549227], [77.2933616, 28.6549323], [77.293369, 28.65491], [77.2934037, 28.654916], [77.2934026, 28.6549405], [77.2934315, 28.6549489], [77.2934371, 28.6549335], [77.2934489, 28.6549356], [77.2934651, 28.6548804], [77.2934295, 28.6548737], [77.2934384, 28.6548512], [77.293471, 28.6548565], [77.293502, 28.6547438], [77.2934781, 28.6547391], [77.2934813, 28.6547321], [77.2934962, 28.6547357], [77.2935066, 28.65469], [77.2934934, 28.6546866], [77.2934954, 28.6546745], [77.2934619, 28.6546688], [77.293458, 28.6546887], [77.2934289, 28.6546837], [77.2934341, 28.6546583], [77.2933851, 28.6546493], [77.2933773, 28.6546865], [77.2933882, 28.6546881], [77.2933864, 28.6546957], [77.2933771, 28.6546946], [77.2933712, 28.6547245], [77.2933742, 28.654754], [77.2933218, 28.6547485], [77.2933109, 28.6547944], [77.2933108, 28.6548001], [77.2933135, 28.6548041]]]}, "properties": {"landuse": "construction"}}, {"type": "Feature", "geometry": {"type": "Polygon", "coordinates": [[[77.1087744, 28.7360372], [77.1088407, 28.7359938], [77.1087501, 28.7358932], [77.1086796, 28.7359389], [77.1087744, 28.7360372]]]}, "properties": {"landuse": "construction"}}, {"type": "Feature", "geometry": {"type": "Polygon", "coordinates": [[[77.1673138, 28.7371231], [77.1686957, 28.7367868], [77.1686427, 28.7366195], [77.1672609, 28.7369558], [77.1673138, 28.7371231]]]}, "properties": {"landuse": "construction"}}, {"type": "Feature", "geometry": {"type": "Polygon", "coordinates": [[[77.1103615, 28.7362053], [77.1104919, 28.7361185], [77.1104223, 28.7360381], [77.1102919, 28.736125], [77.1103615, 28.7362053]]]}, "properties": {"landuse": "construction"}}, {"type": "Feature", "geometry": {"type": "Polygon", "coordinates": [[[77.3001405, 28.623731], [77.3001655, 28.623729], [77.3001677, 28.6237671], [77.3004228, 28.6237443], [77.300416, 28.6236982], [77.3001297, 28.6235954], [77.3001405, 28.623731]]]}, "properties": {"landuse": "construction"}}, {"type": "Feature", "geometry": {"type": "Polygon", "coordinates": [[[77.0300013, 28.5388476], [77.031042, 28.5384942], [77.0310688, 28.536053], [77.0299262, 28.536086], [77.0300013, 28.5388476]]]}, "properties": {"landuse": "construction"}}, {"type": "Feature", "geometry": {"type": "Polygon", "coordinates": [[[77.0314336, 28.5261417], [77.0314282, 28.5256656], [77.0323107, 28.5256821], [77.0323563, 28.5273058], [77.0333512, 28.5273179], [77.0333567, 28.5278478], [77.0337041, 28.5278431], [77.0371306, 28.5278337], [77.0371309, 28.5272014], [77.0370676, 28.5261815], [77.0384395, 28.5261515], [77.0383859, 28.522569], [77.0335364, 28.5226445], [77.0335257, 28.5213436], [77.03219, 28.52132], [77.0321913, 28.5219192], [77.0308993, 28.5219263], [77.0309044, 28.5224216], [77.0310221, 28.5224276], [77.0310361, 28.5229616], [77.0316155, 28.5229799], [77.0316173, 28.5240888], [77.0312664, 28.5240885], [77.0312756, 28.5247251], [77.0316557, 28.5247237], [77.0316767, 28.5253935], [77.0309241, 28.5253912], [77.0308746, 28.5253329], [77.0307592, 28.5254113], [77.0314336, 28.5261417]]]}, "properties": {"landuse": "construction"}}, {"type": "Feature", "geometry": {"type": "Polygon", "coordinates": [[[77.0001, 28.5032237], [77.0001, 28.5029739], [77.0025408, 28.5029173], [77.0025247, 28.502658], [77.003721, 28.5026203], [77.0043164, 28.501635], [77.0005292, 28.5001029], [76.999172, 28.5016256], [76.9983941, 28.5021112], [76.9983834, 28.503252], [77.0001, 28.5032237]]]}, "properties": {"landuse": "construction"}}, {"type": "Feature", "geometry": {"type": "Polygon", "coordinates": [[[76.9926703, 28.4852918], [76.9940409, 28.4847637], [76.9961572, 28.4837405], [76.9955885, 28.4831511], [76.9953309, 28.4831398], [76.992614, 28.4831443], [76.9926703, 28.4852918]]]}, "properties": {"landuse": "construction"}}, {"type": "Feature", "geometry": {"type": "Polygon", "coordinates": [[[76.9749087, 28.4873876], [76.978063, 28.4858693], [76.9780683, 28.4834647], [76.9748658, 28.4835024], [76.9749087, 28.4873876]]]}, "properties": {"landuse": "construction"}}, {"type": "Feature", "geometry": {"type": "Polygon", "coordinates": [[[76.9505408, 28.4358925], [76.9505381, 28.4364169], [76.9509992, 28.4364187], [76.9510049, 28.4352956], [76.9511738, 28.4352963], [76.9511765, 28.4347533], [76.9519259, 28.4347562], [76.9519303, 28.4338844], [76.9498614, 28.4338763], [76.9498622, 28.4337279], [76.9492158, 28.4337254], [76.9492131, 28.4342542], [76.9490979, 28.4342537], [76.9490951, 28.4348255], [76.9482422, 28.4348221], [76.9482368, 28.4358835], [76.9505408, 28.4358925]]]}, "properties": {"landuse": "construction"}}, {"type": "Feature", "geometry": {"type": "Polygon", "coordinates": [[[76.9498261, 28.4293343], [76.9498308, 28.4298698], [76.9505085, 28.4298802], [76.9505061, 28.4297989], [76.9511553, 28.4298156], [76.9511553, 28.4298968], [76.9545813, 28.4298552], [76.9545373, 28.4284631], [76.9539043, 28.4285504], [76.9511041, 28.4281848], [76.9508117, 28.4282484], [76.9495323, 28.4293243], [76.9498261, 28.4293343]]]}, "properties": {"landuse": "construction"}}, {"type": "Feature", "geometry": {"type": "Polygon", "coordinates": [[[76.9613904, 28.4461288], [76.9615781, 28.4461288], [76.9616103, 28.4469825], [76.9626993, 28.445525], [76.9628495, 28.4450628], [76.9615996, 28.4450675], [76.9615835, 28.4456241], [76.9613367, 28.4456288], [76.9613904, 28.4461288]]]}, "properties": {"landuse": "construction"}}, {"type": "Feature", "geometry": {"type": "Polygon", "coordinates": [[[76.9668582, 28.4462405], [76.9680825, 28.4453717], [76.9657946, 28.442728], [76.9646627, 28.4436525], [76.9668582, 28.4462405]]]}, "properties": {"landuse": "construction"}}, {"type": "Feature", "geometry": {"type": "Polygon", "coordinates": [[[76.9689743, 28.4709472], [76.96949, 28.4720176], [76.9695188, 28.4723347], [76.9696482, 28.472564], [76.9700359, 28.4731249], [76.9714009, 28.4730967], [76.9713971, 28.4725371], [76.9708575, 28.4725418], [76.9708527, 28.4720066], [76.9712044, 28.4720025], [76.9712252, 28.4714633], [76.9707218, 28.4714633], [76.9707098, 28.4709154], [76.9695471, 28.4709259], [76.9695411, 28.4706151], [76.9695392, 28.4703795], [76.9687637, 28.4705491], [76.9689743, 28.4709472]]]}, "properties": {"landuse": "construction"}}, {"type": "Feature", "geometry": {"type": "Polygon", "coordinates": [[[76.9539278, 28.4602481], [76.955431, 28.4602482], [76.9559027, 28.4603268], [76.9566647, 28.4591476], [76.9539195, 28.4591926], [76.9539278, 28.4602481]]]}, "properties": {"landuse": "construction"}}, {"type": "Feature", "geometry": {"type": "Polygon", "coordinates": [[[76.8551863, 28.4001398], [76.865562, 28.4050384], [76.8656758, 28.4050921], [76.8655472, 28.3997987], [76.8638176, 28.3997862], [76.8636546, 28.3963927], [76.8636461, 28.3962152], [76.8588481, 28.3963022], [76.8577731, 28.3962682], [76.857709, 28.3964984], [76.8570793, 28.3987594], [76.8563347, 28.3995438], [76.8551736, 28.3992777], [76.8551863, 28.4001398]]]}, "properties": {"landuse": "construction"}}, {"type": "Feature", "geometry": {"type": "Polygon", "coordinates": [[[76.9682205, 28.4263793], [76.9683081, 28.4330037], [76.9690192, 28.4330053], [76.9690335, 28.4335646], [76.9683492, 28.4335741], [76.9683617, 28.4340926], [76.9677435, 28.4340926], [76.9684743, 28.4345121], [76.9734092, 28.4371579], [76.9750102, 28.4380566], [76.9753532, 28.4382153], [76.9758339, 28.4383489], [76.9758303, 28.4381226], [76.9804606, 28.4380692], [76.9805375, 28.4378351], [76.9806313, 28.4378414], [76.9812995, 28.4389207], [76.981421, 28.4388862], [76.9816604, 28.4391784], [76.9816997, 28.4396152], [76.982493, 28.439722], [76.9824502, 28.4400708], [76.9821714, 28.4405327], [76.9815782, 28.4412648], [76.9816497, 28.4413403], [76.9814317, 28.4415508], [76.9818462, 28.441799], [76.9854733, 28.4393921], [76.985484, 28.4380032], [76.9864274, 28.4380095], [76.9864453, 28.4388013], [76.987621, 28.4380912], [76.9872351, 28.4374627], [76.9918359, 28.4346723], [76.9902779, 28.4325952], [76.9890289, 28.4312502], [76.98835, 28.430518], [76.9920039, 28.4285964], [76.9914839, 28.4285869], [76.9914768, 28.4280291], [76.9904744, 28.428004], [76.9904655, 28.4284298], [76.9897633, 28.4284267], [76.9897722, 28.4279396], [76.989079, 28.427938], [76.9890843, 28.4274258], [76.9877657, 28.4274478], [76.9878086, 28.4268852], [76.9871243, 28.4268931], [76.9871886, 28.4258293], [76.9873405, 28.4258136], [76.9898008, 28.4257539], [76.9897865, 28.4247545], [76.989129, 28.4247608], [76.9891219, 28.4242265], [76.9884536, 28.4242171], [76.9884465, 28.4236514], [76.9880998, 28.4236609], [76.9880891, 28.4231109], [76.9871082, 28.4231046], [76.98711, 28.4214924], [76.9864346, 28.4215175], [76.9864346, 28.4225892], [76.9843512, 28.4225483], [76.9843441, 28.4220015], [76.9857163, 28.4220204], [76.9857663, 28.4203861], [76.9809279, 28.4203044], [76.980935, 28.4214044], [76.9637001, 28.4215427], [76.9626602, 28.4264704], [76.9682205, 28.4263793]]]}, "properties": {"landuse": "construction"}}, {"type": "Feature", "geometry": {"type": "Polygon", "coordinates": [[[77.0279137, 28.691646], [77.0308472, 28.69157], [77.0308819, 28.6928769], [77.0324695, 28.6928114], [77.0367247, 28.6927597], [77.036743, 28.692692], [77.037136, 28.6912418], [77.0368811, 28.6899975], [77.0353291, 28.6895284], [77.0349899, 28.6895335], [77.0344921, 28.6896561], [77.0343364, 28.6891871], [77.0330751, 28.6891943], [77.0330416, 28.6889156], [77.0278213, 28.6893411], [77.0279137, 28.691646]]]}, "properties": {"landuse": "construction"}}, {"type": "Feature", "geometry": {"type": "Polygon", "coordinates": [[[77.3070252, 28.5279987], [77.3076084, 28.5287647], [77.3077161, 28.5288764], [77.3078412, 28.5289391], [77.3083939, 28.5291888], [77.3088373, 28.5294103], [77.3091211, 28.5295648], [77.3096131, 28.5297194], [77.3099704, 28.5297388], [77.3103461, 28.529791], [77.3105624, 28.52978], [77.3106241, 28.5297509], [77.3106283, 28.5296987], [77.3104098, 28.5285769], [77.3103961, 28.5284074], [77.3104066, 28.5281988], [77.3104222, 28.5280838], [77.310475, 28.527973], [77.3105573, 28.5278921], [77.3106779, 28.5278355], [77.3108366, 28.5277836], [77.3110398, 28.527751], [77.3115612, 28.5276602], [77.3124924, 28.5275196], [77.3136438, 28.5273881], [77.3138814, 28.5273185], [77.3140597, 28.527253], [77.314338, 28.5271032], [77.3146679, 28.526961], [77.3148951, 28.5269133], [77.3152213, 28.5268074], [77.3159405, 28.5266613], [77.3165761, 28.5264522], [77.3174911, 28.5262157], [77.3186498, 28.5258939], [77.3192141, 28.5257592], [77.3207709, 28.525478], [77.3239358, 28.5250732], [77.3240299, 28.5250561], [77.3241213, 28.5249758], [77.3243895, 28.5246325], [77.3258735, 28.5227479], [77.3274365, 28.5207792], [77.3275677, 28.5205703], [77.3184776, 28.5205919], [77.3098232, 28.5216017], [77.309702, 28.5217807], [77.3090482, 28.5224645], [77.3089769, 28.5227261], [77.308587, 28.5232939], [77.3084082, 28.5235021], [77.3082134, 28.5237686], [77.3079177, 28.5242453], [77.3077701, 28.5244809], [77.3075535, 28.5247356], [77.3070988, 28.5257555], [77.3069595, 28.5263436], [77.3068764, 28.526601], [77.3068182, 28.5265883], [77.3064297, 28.5279704], [77.3070252, 28.5279987]]]}, "properties": {"landuse": "construction"}}, {"type": "Feature", "geometry": {"type": "Polygon", "coordinates": [[[77.1875654, 28.5468107], [77.1875452, 28.5468873], [77.1876244, 28.5469035], [77.1876315, 28.546877], [77.1878314, 28.546918], [77.1878365, 28.5468988], [77.1878647, 28.5469046], [77.1878584, 28.5469284], [77.1879648, 28.5469502], [77.1879717, 28.5469239], [77.1880027, 28.5469302], [77.187998, 28.5469479], [77.1881889, 28.546987], [77.1882534, 28.5467437], [77.1882373, 28.5467404], [77.1882435, 28.5467172], [77.1882595, 28.5467204], [77.1882702, 28.54668], [77.1881886, 28.5466633], [77.1881807, 28.5466932], [77.1881607, 28.5466909], [77.1881704, 28.5466541], [77.1881144, 28.5466427], [77.1881079, 28.5466671], [77.1877509, 28.5465945], [77.1877576, 28.5465691], [77.1875986, 28.5465368], [77.1875859, 28.5465849], [77.1876031, 28.5465884], [77.1875979, 28.5466081], [77.1875834, 28.5466052], [77.187531, 28.5468037], [77.1875654, 28.5468107]], [[77.1876734, 28.5466255], [77.1878927, 28.5466692], [77.1878495, 28.5468409], [77.1876243, 28.5467938], [77.1876734, 28.5466255]], [[77.187952, 28.5466792], [77.1881628, 28.5467244], [77.1881221, 28.5468711], [77.1881325, 28.5468742], [77.1881262, 28.5469035], [77.187903, 28.5468557], [77.187952, 28.5466792]]]}, "properties": {"landuse": "construction"}}, {"type": "Feature", "geometry": {"type": "Polygon", "coordinates": [[[77.18703, 28.5474283], [77.1870316, 28.5474222], [77.1872453, 28.5474671], [77.1872451, 28.5474717], [77.18731, 28.5474842], [77.1873526, 28.5473138], [77.1873309, 28.5473066], [77.1873357, 28.5472872], [77.1873559, 28.5472911], [77.1873806, 28.5471925], [77.1873583, 28.5471882], [77.1873657, 28.547159], [77.1873908, 28.5471638], [77.187433, 28.5469957], [77.1874585, 28.5470006], [77.1874768, 28.5469275], [77.1873906, 28.5469109], [77.1873978, 28.5468821], [77.1871773, 28.5468395], [77.1871717, 28.5468494], [77.1871404, 28.5468416], [77.1871428, 28.5468278], [77.1871107, 28.5468199], [77.1870895, 28.5468359], [77.1870752, 28.5468919], [77.1871158, 28.5468999], [77.1871145, 28.5469098], [77.1870668, 28.5469004], [77.1870527, 28.5469555], [77.1870851, 28.5469619], [77.1870067, 28.5472684], [77.1870163, 28.5472703], [77.1870146, 28.547277], [77.1869701, 28.5472683], [77.1869551, 28.5473274], [77.1870011, 28.5473364], [77.1869989, 28.5473451], [77.1869663, 28.5473387], [77.186948, 28.5474111], [77.18703, 28.5474283]], [[77.1870959, 28.5471645], [77.1872808, 28.5472006], [77.1872331, 28.5473835], [77.1870469, 28.5473466], [77.1870959, 28.5471645]], [[77.1871585, 28.5469173], [77.1873474, 28.5469566], [77.1873038, 28.5471528], [77.1871041, 28.5471056], [77.1871585, 28.5469173]]]}, "properties": {"landuse": "construction"}}, {"type": "Feature", "geometry": {"type": "Polygon", "coordinates": [[[77.2360249, 28.5490014], [77.2362948, 28.5489186], [77.2362009, 28.5486909], [77.2359335, 28.5487753], [77.2360249, 28.5490014]]]}, "properties": {"landuse": "construction"}}, {"type": "Feature", "geometry": {"type": "Polygon", "coordinates": [[[77.0993016, 28.4312046], [77.1002625, 28.431186], [77.100193, 28.4290947], [77.0992956, 28.4291266], [77.0993016, 28.4312046]]]}, "properties": {"landuse": "construction"}}, {"type": "Feature", "geometry": {"type": "Polygon", "coordinates": [[[77.0662433, 28.4289668], [77.0670303, 28.4289777], [77.0670427, 28.4293537], [77.0673928, 28.4293496], [77.067399, 28.4291793], [77.0674377, 28.4291766], [77.0674392, 28.4280391], [77.0682804, 28.42802], [77.068268, 28.4276699], [77.0682635, 28.4271742], [77.0682638, 28.4269986], [77.0681235, 28.4269983], [77.0681208, 28.4271784], [77.0677051, 28.4271825], [77.0677162, 28.4276517], [77.0669823, 28.4279996], [77.0669884, 28.4282965], [77.0656869, 28.4283359], [77.0662433, 28.4289668]]]}, "properties": {"landuse": "construction"}}, {"type": "Feature", "geometry": {"type": "Polygon", "coordinates": [[[77.0705521, 28.4339718], [77.0705611, 28.4335986], [77.0703355, 28.4335986], [77.0703332, 28.4337047], [77.0702148, 28.4337027], [77.0702081, 28.4342252], [77.0705521, 28.4339718]]]}, "properties": {"landuse": "construction"}}, {"type": "Feature", "geometry": {"type": "Polygon", "coordinates": [[[77.2045889, 28.6093105], [77.2054465, 28.6093005], [77.2053778, 28.6081298], [77.2051582, 28.6079889], [77.2049466, 28.6079863], [77.2042507, 28.6083905], [77.2045889, 28.6093105]]]}, "properties": {"landuse": "construction"}}, {"type": "Feature", "geometry": {"type": "Polygon", "coordinates": [[[77.1881551, 28.5969545], [77.1887571, 28.5967125], [77.1884474, 28.5961185], [77.1878453, 28.5963605], [77.1881551, 28.5969545]]]}, "properties": {"landuse": "construction"}}, {"type": "Feature", "geometry": {"type": "Polygon", "coordinates": [[[77.2095357, 28.5850156], [77.210192, 28.5850258], [77.2112828, 28.5850863], [77.2112516, 28.5840059], [77.2110397, 28.5838363], [77.2089207, 28.5836974], [77.2088349, 28.5844416], [77.2095357, 28.5850156]]]}, "properties": {"landuse": "construction"}}, {"type": "Feature", "geometry": {"type": "Polygon", "coordinates": [[[77.1057493, 28.5317838], [77.1057411, 28.5318594], [77.1061566, 28.5321212], [77.106713, 28.5323234], [77.1070838, 28.5324645], [77.1076881, 28.5325125], [77.1084117, 28.5320703], [77.1084571, 28.5312369], [77.1057388, 28.5312669], [77.1057493, 28.5317838]]]}, "properties": {"landuse": "construction"}}, {"type": "Feature", "geometry": {"type": "Polygon", "coordinates": [[[77.1084979, 28.5329646], [77.1089499, 28.5331886], [77.1092413, 28.533398], [77.1095227, 28.5331231], [77.1095161, 28.5328177], [77.1095376, 28.5327493], [77.1097479, 28.5323609], [77.1098224, 28.5321544], [77.1098423, 28.5319609], [77.1097198, 28.5317049], [77.1090889, 28.5322082], [77.108483, 28.5322489], [77.1084896, 28.5324802], [77.1077677, 28.5325515], [77.1071982, 28.5325427], [77.1084979, 28.5329646]]]}, "properties": {"landuse": "construction"}}, {"type": "Feature", "geometry": {"type": "Polygon", "coordinates": [[[77.1243858, 28.5526306], [77.1257317, 28.5523131], [77.1251465, 28.5503597], [77.1237661, 28.550653], [77.1243858, 28.5526306]]]}, "properties": {"landuse": "construction"}}, {"type": "Feature", "geometry": {"type": "Polygon", "coordinates": [[[77.0531865, 28.4033604], [77.0539756, 28.4032443], [77.0539917, 28.4036664], [77.0548614, 28.4039979], [77.0548904, 28.4040545], [77.0557278, 28.4044313], [77.0557406, 28.4034086], [77.0563912, 28.4034228], [77.0564106, 28.4028363], [77.0557857, 28.4026323], [77.0557954, 28.4022753], [77.0538822, 28.4022527], [77.0536858, 28.4022385], [77.0535054, 28.4023972], [77.0529901, 28.4032839], [77.0531865, 28.4033604]]]}, "properties": {"landuse": "construction"}}, {"type": "Feature", "geometry": {"type": "Polygon", "coordinates": [[[77.1135469, 28.549906], [77.1145248, 28.5496791], [77.1140052, 28.5479512], [77.1130273, 28.5481781], [77.1135469, 28.549906]]]}, "properties": {"landuse": "construction"}}, {"type": "Feature", "geometry": {"type": "Polygon", "coordinates": [[[77.1162692, 28.549163], [77.1165132, 28.549269], [77.1180099, 28.5489227], [77.116811, 28.5450516], [77.1160626, 28.5452849], [77.1158642, 28.5448584], [77.1155825, 28.5450916], [77.1152499, 28.5450422], [77.115148, 28.5453626], [77.1162692, 28.549163]]]}, "properties": {"landuse": "construction"}}, {"type": "Feature", "geometry": {"type": "Polygon", "coordinates": [[[77.1141717, 28.5462579], [77.1147966, 28.5461378], [77.1148503, 28.5459776], [77.1146733, 28.5453178], [77.1148154, 28.5447924], [77.113831, 28.5450327], [77.1141717, 28.5462579]]]}, "properties": {"landuse": "construction"}}, {"type": "Feature", "geometry": {"type": "Polygon", "coordinates": [[[77.1147791, 28.5496635], [77.1160387, 28.5493867], [77.1151709, 28.5463394], [77.1139113, 28.5466162], [77.1147791, 28.5496635]]]}, "properties": {"landuse": "construction"}}, {"type": "Feature", "geometry": {"type": "Polygon", "coordinates": [[[77.2521974, 28.5893787], [77.2522027, 28.5892443], [77.2522027, 28.58924], [77.2521116, 28.5892378], [77.2521103, 28.5893761], [77.2521974, 28.5893787]]]}, "properties": {"landuse": "construction"}}, {"type": "Feature", "geometry": {"type": "Polygon", "coordinates": [[[77.1118355, 28.4820454], [77.1118368, 28.4822187], [77.1122794, 28.482214], [77.1123035, 28.4819511], [77.1115203, 28.4819452], [77.111515, 28.4820655], [77.1118355, 28.4820454]]]}, "properties": {"landuse": "construction"}}, {"type": "Feature", "geometry": {"type": "Polygon", "coordinates": [[[77.2811252, 28.5065191], [77.2824079, 28.5088476], [77.2850525, 28.5077068], [77.2850257, 28.5074051], [77.285412, 28.5071199], [77.2852027, 28.5065048], [77.283686, 28.5063763], [77.2832608, 28.5055714], [77.2810239, 28.5063351], [77.2811252, 28.5065191]]]}, "properties": {"landuse": "construction"}}, {"type": "Feature", "geometry": {"type": "Polygon", "coordinates": [[[77.3066937, 28.6206351], [77.3067331, 28.6205676], [77.3055824, 28.6202581], [77.3055573, 28.6203454], [77.3066937, 28.6206351]]]}, "properties": {"landuse": "construction"}}, {"type": "Feature", "geometry": {"type": "Polygon", "coordinates": [[[77.2412865, 28.5847191], [77.2413715, 28.5847815], [77.2414458, 28.5847156], [77.2414011, 28.5846768], [77.2412852, 28.5846713], [77.2412865, 28.5847191]]]}, "properties": {"landuse": "construction"}}, {"type": "Feature", "geometry": {"type": "Polygon", "coordinates": [[[77.2587138, 28.4059797], [77.2598929, 28.4039768], [77.2585577, 28.4032449], [77.2575164, 28.4031218], [77.2564741, 28.4049596], [77.2587138, 28.4059797]]]}, "properties": {"landuse": "construction"}}, {"type": "Feature", "geometry": {"type": "Polygon", "coordinates": [[[76.9480436, 28.4080056], [76.9489078, 28.4079946], [76.9488756, 28.4069858], [76.9480185, 28.4069889], [76.9480436, 28.4080056]]]}, "properties": {"landuse": "construction"}}, {"type": "Feature", "geometry": {"type": "Polygon", "coordinates": [[[76.9503425, 28.4085904], [76.9510086, 28.4085961], [76.9509892, 28.408271], [76.9512191, 28.408186], [76.9518745, 28.4081746], [76.9518874, 28.4082067], [76.9521323, 28.408322], [76.952373, 28.407808], [76.9523773, 28.4074602], [76.9522245, 28.4074573], [76.9516832, 28.407447], [76.951694, 28.4066325], [76.9504435, 28.4061619], [76.95048, 28.4071749], [76.9504822, 28.4074697], [76.9510086, 28.4074602], [76.9510129, 28.4080064], [76.9503253, 28.4080026], [76.9503425, 28.4085904]]]}, "properties": {"landuse": "construction"}}, {"type": "Feature", "geometry": {"type": "Polygon", "coordinates": [[[77.1194933, 28.5937403], [77.1197974, 28.5936245], [77.119758, 28.5935447], [77.1194751, 28.5929722], [77.1194235, 28.5929919], [77.1193754, 28.5930102], [77.1193956, 28.5930511], [77.1193653, 28.5930626], [77.1195329, 28.5934018], [77.1193588, 28.5934681], [77.1194933, 28.5937403]]]}, "properties": {"landuse": "construction"}}, {"type": "Feature", "geometry": {"type": "Polygon", "coordinates": [[[77.2325696, 28.5494661], [77.2325836, 28.5496012], [77.2326959, 28.5495093], [77.2326656, 28.5494808], [77.2325796, 28.5493997], [77.2325641, 28.5494125], [77.2325696, 28.5494661]]]}, "properties": {"landuse": "construction"}}, {"type": "Feature", "geometry": {"type": "Polygon", "coordinates": [[[77.2333723, 28.5488326], [77.233476, 28.548954], [77.2335324, 28.5489161], [77.233405, 28.5487662], [77.2333477, 28.5488038], [77.2333723, 28.5488326]]]}, "properties": {"landuse": "construction"}}, {"type": "Feature", "geometry": {"type": "Polygon", "coordinates": [[[77.2328572, 28.549386], [77.2329344, 28.549328], [77.2328068, 28.5492001], [77.2327954, 28.5491887], [77.2327171, 28.5492484], [77.2328572, 28.549386]]]}, "properties": {"landuse": "construction"}}, {"type": "Feature", "geometry": {"type": "Polygon", "coordinates": [[[76.9438404, 28.4113625], [76.9438472, 28.4115302], [76.9462711, 28.4130873], [76.9463018, 28.4125303], [76.9460022, 28.4125213], [76.9460124, 28.4124105], [76.9459477, 28.4124105], [76.9462473, 28.4119973], [76.9461928, 28.4113206], [76.9449604, 28.4108025], [76.943905, 28.4107996], [76.9438846, 28.4109642], [76.9437178, 28.4109822], [76.9437076, 28.4113505], [76.9438404, 28.4113625]]]}, "properties": {"landuse": "construction"}}, {"type": "Feature", "geometry": {"type": "Polygon", "coordinates": [[[76.9891987, 28.3940877], [76.9901069, 28.394115], [76.990672, 28.3937019], [76.9921257, 28.3936623], [76.9922466, 28.3937291], [76.9922381, 28.3937786], [76.9923675, 28.3938948], [76.9931435, 28.3945206], [76.9931716, 28.3930365], [76.9926089, 28.393023], [76.9918389, 28.3930044], [76.9900001, 28.3930044], [76.9899916, 28.3936475], [76.9885071, 28.3936401], [76.9885014, 28.3940828], [76.9891987, 28.3940877]]]}, "properties": {"landuse": "construction"}}, {"type": "Feature", "geometry": {"type": "Polygon", "coordinates": [[[76.9898679, 28.3919037], [76.9899073, 28.3924479], [76.9891931, 28.3924553], [76.9891931, 28.3930168], [76.9898595, 28.3930044], [76.9912512, 28.3929871], [76.9912484, 28.3924677], [76.9905568, 28.392485], [76.9905652, 28.3916663], [76.9892297, 28.3916564], [76.9891903, 28.3919062], [76.9898679, 28.3919037]]]}, "properties": {"landuse": "construction"}}, {"type": "Feature", "geometry": {"type": "Polygon", "coordinates": [[[76.99467, 28.3929974], [76.99467, 28.3926285], [76.9948647, 28.3926285], [76.9951791, 28.3930061], [76.9953965, 28.3930043], [76.9953993, 28.393219], [76.9958629, 28.3937465], [76.9960356, 28.3936072], [76.9960287, 28.3924807], [76.9953576, 28.3924664], [76.9953437, 28.3919741], [76.9946494, 28.3919578], [76.9946451, 28.3912761], [76.9940062, 28.3912717], [76.9940012, 28.3913991], [76.9926236, 28.3913859], [76.9926186, 28.3917855], [76.9928931, 28.3917855], [76.9928931, 28.3924792], [76.9926286, 28.3924836], [76.9926089, 28.393023], [76.99467, 28.3929974]]]}, "properties": {"landuse": "construction"}}, {"type": "Feature", "geometry": {"type": "Polygon", "coordinates": [[[77.000959, 28.4035692], [77.0015879, 28.403578], [77.0015729, 28.4043902], [77.0023067, 28.4044034], [77.0022967, 28.4041531], [77.0036443, 28.4041443], [77.0036393, 28.4035867], [77.0042483, 28.4035911], [77.0042483, 28.4024935], [77.0039788, 28.4025023], [77.003864, 28.4022476], [77.003829, 28.4019447], [77.0013433, 28.4022872], [77.0013533, 28.4030204], [77.000954, 28.4030204], [77.000959, 28.4035692]]]}, "properties": {"landuse": "construction"}}, {"type": "Feature", "geometry": {"type": "Polygon", "coordinates": [[[77.1715943, 28.5069809], [77.1726967, 28.5065308], [77.172871, 28.5065308], [77.1731902, 28.5064247], [77.1741317, 28.5060641], [77.1736864, 28.5054112], [77.1722487, 28.5061607], [77.1713207, 28.506526], [77.1715943, 28.5069809]]]}, "properties": {"landuse": "construction"}}, {"type": "Feature", "geometry": {"type": "Polygon", "coordinates": [[[77.0657788, 28.4195708], [77.0662288, 28.4192603], [77.065905, 28.4187743], [77.0655501, 28.4187743], [77.0655483, 28.4193278], [77.0657788, 28.4195708]]]}, "properties": {"landuse": "construction"}}, {"type": "Feature", "geometry": {"type": "Polygon", "coordinates": [[[77.0351198, 28.3931035], [77.0355943, 28.3931141], [77.0355882, 28.3933348], [77.0354885, 28.3934438], [77.0353797, 28.3934624], [77.0353646, 28.3939169], [77.0378939, 28.3939143], [77.037906, 28.3943848], [77.0386131, 28.3943768], [77.0386101, 28.3939674], [77.0388216, 28.3939701], [77.0388095, 28.3934517], [77.0366791, 28.3934251], [77.0367033, 28.3926037], [77.036658, 28.3926037], [77.0366549, 28.3926276], [77.0361261, 28.392734], [77.0355731, 28.3929094], [77.0351168, 28.3930556], [77.0351198, 28.3931035]]]}, "properties": {"landuse": "construction"}}, {"type": "Feature", "geometry": {"type": "Polygon", "coordinates": [[[77.0179551, 28.3892886], [77.0179604, 28.388524], [77.0188402, 28.3885429], [77.0188241, 28.3876651], [77.0180302, 28.387684], [77.0179872, 28.388189], [77.0172738, 28.3882031], [77.0172684, 28.3892697], [77.0179551, 28.3892886]]]}, "properties": {"landuse": "construction"}}, {"type": "Feature", "geometry": {"type": "Polygon", "coordinates": [[[77.0161955, 28.3900625], [77.0161848, 28.3905958], [77.0164691, 28.3905911], [77.0164745, 28.3911338], [77.0173221, 28.3911479], [77.0162921, 28.3889771], [77.0155357, 28.3889865], [77.0155196, 28.3900578], [77.0161955, 28.3900625]]]}, "properties": {"landuse": "construction"}}, {"type": "Feature", "geometry": {"type": "Polygon", "coordinates": [[[77.0663453, 28.3853026], [77.0681612, 28.3852884], [77.0680405, 28.3847905], [77.0680485, 28.384564], [77.0681371, 28.3845663], [77.0681531, 28.3841959], [77.0681263, 28.3842006], [77.0681263, 28.3838938], [77.0674611, 28.3838834], [77.067445, 28.3846324], [77.0668147, 28.3846253], [77.0668272, 28.3838318], [77.0664855, 28.3838327], [77.066407, 28.3837735], [77.0656614, 28.3842431], [77.0663453, 28.3853026]]]}, "properties": {"landuse": "construction"}}, {"type": "Feature", "geometry": {"type": "Polygon", "coordinates": [[[77.1003036, 28.4995333], [77.1018061, 28.4995315], [77.1015382, 28.4991149], [77.101025, 28.4991004], [77.1008106, 28.4991747], [77.1006045, 28.4990026], [77.1005489, 28.4988939], [77.1000604, 28.4991185], [77.1003036, 28.4995333]]]}, "properties": {"landuse": "construction"}}, {"type": "Feature", "geometry": {"type": "Polygon", "coordinates": [[[77.2451953, 28.5683426], [77.2452618, 28.5683164], [77.245182, 28.5681603], [77.2451154, 28.5681865], [77.2451953, 28.5683426]]]}, "properties": {"landuse": "construction"}}, {"type": "Feature", "geometry": {"type": "Polygon", "coordinates": [[[76.9469851, 28.4564582], [76.9483459, 28.4564378], [76.9483459, 28.4559682], [76.9497066, 28.4559478], [76.9496973, 28.4543268], [76.9503243, 28.4543268], [76.950315, 28.4537633], [76.9484945, 28.4537797], [76.9484991, 28.4543146], [76.9469758, 28.454335], [76.9469851, 28.4564582]]]}, "properties": {"landuse": "construction"}}, {"type": "Feature", "geometry": {"type": "Polygon", "coordinates": [[[76.9188417, 28.4268988], [76.9189148, 28.4251531], [76.9161706, 28.4251086], [76.9161032, 28.4259642], [76.9188417, 28.4268988]]]}, "properties": {"landuse": "construction"}}, {"type": "Feature", "geometry": {"type": "Polygon", "coordinates": [[[77.2084201, 28.6859966], [77.2098197, 28.6854653], [77.2096101, 28.6850589], [77.2085064, 28.6854783], [77.2082246, 28.6855894], [77.2084201, 28.6859966]]]}, "properties": {"landuse": "construction"}}, {"type": "Feature", "geometry": {"type": "Polygon", "coordinates": [[[76.9170538, 28.3818363], [76.9182173, 28.3818708], [76.9182065, 28.3811251], [76.9163918, 28.3811628], [76.9170538, 28.3818363]]]}, "properties": {"landuse": "construction"}}, {"type": "Feature", "geometry": {"type": "Polygon", "coordinates": [[[76.969911, 28.4050555], [76.9715143, 28.4050015], [76.9696349, 28.4040434], [76.969911, 28.4050555]]]}, "properties": {"landuse": "construction"}}, {"type": "Feature", "geometry": {"type": "Polygon", "coordinates": [[[76.9664092, 28.4088914], [76.9682311, 28.4088678], [76.9683116, 28.4088205], [76.9691861, 28.4077477], [76.9687719, 28.4077815], [76.9681006, 28.4077781], [76.9681045, 28.4075622], [76.9675828, 28.407579], [76.967602, 28.4083415], [76.9660525, 28.408355], [76.9658837, 28.4085135], [76.9664092, 28.4088914]]]}, "properties": {"landuse": "construction"}}, {"type": "Feature", "geometry": {"type": "Polygon", "coordinates": [[[76.9687818, 28.407754], [76.9691978, 28.4077287], [76.9695562, 28.4072546], [76.9695588, 28.4072109], [76.969462, 28.4072224], [76.9694646, 28.4070752], [76.9687792, 28.4070844], [76.9687818, 28.407754]]]}, "properties": {"landuse": "construction"}}, {"type": "Feature", "geometry": {"type": "Polygon", "coordinates": [[[77.0696497, 28.4224682], [77.0701966, 28.4217864], [77.0697735, 28.4215538], [77.0695077, 28.4218822], [77.0692859, 28.4222266], [77.0696497, 28.4224682]]]}, "properties": {"landuse": "construction"}}, {"type": "Feature", "geometry": {"type": "Polygon", "coordinates": [[[77.152092, 28.7263989], [77.1519365, 28.7264837], [77.1521072, 28.72667], [77.1519327, 28.7267548], [77.1534272, 28.7278375], [77.155239, 28.7259293], [77.1536806, 28.7248332], [77.1515375, 28.7256776], [77.152092, 28.7263989]]]}, "properties": {"landuse": "construction"}}, {"type": "Feature", "geometry": {"type": "Polygon", "coordinates": [[[77.194372, 28.6605721], [77.1981132, 28.660778], [77.1981658, 28.6589254], [77.1978382, 28.6582014], [77.1966572, 28.6587479], [77.1942547, 28.6586521], [77.1940283, 28.659912], [77.194372, 28.6605721]]]}, "properties": {"landuse": "construction"}}, {"type": "Feature", "geometry": {"type": "Polygon", "coordinates": [[[77.186382, 28.5645023], [77.1865929, 28.5643737], [77.1864501, 28.564193], [77.1862392, 28.5643216], [77.186382, 28.5645023]]]}, "properties": {"landuse": "construction"}}, {"type": "Feature", "geometry": {"type": "Polygon", "coordinates": [[[77.2515127, 28.5780643], [77.2515866, 28.5787353], [77.2526857, 28.579396], [77.2542425, 28.5773121], [77.2543842, 28.5745523], [77.2534845, 28.573773], [77.2502983, 28.5773804], [77.2515127, 28.5780643]]]}, "properties": {"landuse": "construction"}}, {"type": "Feature", "geometry": {"type": "Polygon", "coordinates": [[[77.2023516, 28.6129491], [77.2035751, 28.6128999], [77.2037386, 28.6127646], [77.2037246, 28.6122152], [77.2053357, 28.6121578], [77.2053124, 28.6112354], [77.2051349, 28.6109935], [77.2050322, 28.6109402], [77.2021986, 28.6110998], [77.2023516, 28.6129491]]]}, "properties": {"landuse": "construction"}}, {"type": "Feature", "geometry": {"type": "Polygon", "coordinates": [[[77.0924387, 28.3930158], [77.0933797, 28.393004], [77.0933663, 28.3920585], [77.0924254, 28.3916446], [77.0924387, 28.3930158]]]}, "properties": {"landuse": "construction"}}, {"type": "Feature", "geometry": {"type": "Polygon", "coordinates": [[[77.059781, 28.2988025], [77.0639872, 28.2986342], [77.0637173, 28.2972726], [77.0628513, 28.2955792], [77.0599384, 28.2968765], [77.0597753, 28.297025], [77.059781, 28.2988025]]]}, "properties": {"landuse": "construction"}}, {"type": "Feature", "geometry": {"type": "Polygon", "coordinates": [[[77.0628467, 28.194863], [77.0683463, 28.1944863], [77.0720802, 28.1891336], [77.064275, 28.1894706], [77.0644325, 28.1927814], [77.0627455, 28.1929598], [77.0628467, 28.194863]]]}, "properties": {"landuse": "construction"}}, {"type": "Feature", "geometry": {"type": "Polygon", "coordinates": [[[77.0435315, 28.5937019], [77.0438565, 28.5934636], [77.0431191, 28.5925921], [77.0430115, 28.5926623], [77.0432245, 28.5929254], [77.0429911, 28.5930816], [77.0435315, 28.5937019]]]}, "properties": {"landuse": "construction"}}, {"type": "Feature", "geometry": {"type": "Polygon", "coordinates": [[[77.123545, 28.5707648], [77.1247359, 28.5707553], [77.1253367, 28.5704161], [77.1253582, 28.5700487], [77.1260341, 28.5699921], [77.1274395, 28.5708307], [77.1289845, 28.5732051], [77.1295746, 28.5732805], [77.1309479, 28.5727434], [77.1291776, 28.5702277], [77.1296282, 28.5689085], [77.1297784, 28.568428], [77.1279438, 28.5676459], [77.1237488, 28.5697566], [77.1232124, 28.5699827], [77.123545, 28.5707648]]]}, "properties": {"landuse": "construction"}}, {"type": "Feature", "geometry": {"type": "Polygon", "coordinates": [[[77.0337059, 28.5892342], [77.0337353, 28.589269], [77.0340672, 28.5890526], [77.0338014, 28.5887381], [77.0334694, 28.5889545], [77.0337059, 28.5892342]]]}, "properties": {"landuse": "construction"}}, {"type": "Feature", "geometry": {"type": "Polygon", "coordinates": [[[77.1894868, 28.5643354], [77.1896396, 28.5643213], [77.1896293, 28.5642353], [77.1894802, 28.5642486], [77.1894868, 28.5643354]]]}, "properties": {"landuse": "construction"}}, {"type": "Feature", "geometry": {"type": "Polygon", "coordinates": [[[77.1894802, 28.5642486], [77.1896293, 28.5642353], [77.1896404, 28.5642343], [77.1896313, 28.5641578], [77.1894715, 28.5641721], [77.1894802, 28.5642486]]]}, "properties": {"landuse": "construction"}}, {"type": "Feature", "geometry": {"type": "Polygon", "coordinates": [[[77.1896106, 28.5637534], [77.189649, 28.5637496], [77.1896319, 28.5636181], [77.189485, 28.5636328], [77.1896106, 28.5637534]]]}, "properties": {"landuse": "construction"}}, {"type": "Feature", "geometry": {"type": "Polygon", "coordinates": [[[77.1898357, 28.5632815], [77.1899368, 28.5632722], [77.1899218, 28.5631387], [77.1898217, 28.5631466], [77.1898357, 28.5632815]]]}, "properties": {"landuse": "construction"}}, {"type": "Feature", "geometry": {"type": "Polygon", "coordinates": [[[77.2127712, 28.6948388], [77.2129357, 28.694779], [77.2130241, 28.6947473], [77.2133038, 28.6946465], [77.2135241, 28.6951172], [77.2141101, 28.6949057], [77.2141123, 28.6948355], [77.2141815, 28.6947177], [77.2142437, 28.6946133], [77.2143769, 28.6945386], [77.2144926, 28.6944745], [77.2146403, 28.6944513], [77.2148136, 28.6944772], [77.2149166, 28.6944929], [77.2150179, 28.6944589], [77.2151388, 28.6944177], [77.2151545, 28.6944532], [77.2153875, 28.6943739], [77.2150398, 28.6936374], [77.2141649, 28.6939221], [77.21414, 28.6938694], [77.212581, 28.6944364], [77.2127712, 28.6948388]]]}, "properties": {"landuse": "construction"}}, {"type": "Feature", "geometry": {"type": "Polygon", "coordinates": [[[77.1061044, 28.4336234], [77.1066971, 28.433336], [77.1070298, 28.43317], [77.1062702, 28.4331591], [77.1062302, 28.4322604], [77.1055253, 28.4322369], [77.1054449, 28.4325287], [77.1061044, 28.4336234]]]}, "properties": {"landuse": "construction"}}, {"type": "Feature", "geometry": {"type": "Polygon", "coordinates": [[[77.1981468, 28.6249267], [77.1982437, 28.624967], [77.1996293, 28.6241852], [77.1996248, 28.6240639], [77.1981779, 28.6234746], [77.1980611, 28.6235675], [77.1981468, 28.6249267]]]}, "properties": {"landuse": "construction"}}, {"type": "Feature", "geometry": {"type": "Polygon", "coordinates": [[[77.0957747, 28.462975], [77.0959355, 28.4630801], [77.0960839, 28.4631127], [77.0967682, 28.4629333], [77.0968341, 28.4627847], [77.0958118, 28.4623372], [77.0956943, 28.4628626], [77.0957747, 28.462975]]]}, "properties": {"landuse": "construction"}}, {"type": "Feature", "geometry": {"type": "Polygon", "coordinates": [[[77.105601, 28.4498793], [77.1059467, 28.4497676], [77.1061548, 28.4497433], [77.1064242, 28.4497899], [77.1066965, 28.4499363], [77.1073504, 28.4499731], [77.1075321, 28.4499185], [77.1075604, 28.4499845], [77.1077291, 28.4499948], [77.1077573, 28.4498795], [77.1078629, 28.449849], [77.1080766, 28.4498918], [77.1087984, 28.4497837], [77.1094937, 28.4495881], [77.1094446, 28.449461], [77.1095905, 28.4494236], [77.1097481, 28.4495564], [77.1100814, 28.449366], [77.1101758, 28.4495758], [77.1108301, 28.449504], [77.1108534, 28.4495753], [77.1106575, 28.449635], [77.1108461, 28.4497919], [77.111044, 28.4497937], [77.1111186, 28.4499772], [77.1117675, 28.4499149], [77.1122504, 28.4497605], [77.1130006, 28.4493692], [77.113685, 28.4494234], [77.1141385, 28.4493151], [77.1146616, 28.4490297], [77.1153959, 28.4486346], [77.1155227, 28.4483829], [77.1158672, 28.4482395], [77.1154379, 28.4472024], [77.1154383, 28.4468169], [77.1147677, 28.4468616], [77.114537, 28.4463805], [77.1148589, 28.4459843], [77.1145853, 28.4451494], [77.1144619, 28.445206], [77.1141454, 28.4446589], [77.1128633, 28.4449607], [77.1129331, 28.4456635], [77.1120801, 28.4459701], [77.1125307, 28.4469889], [77.1121282, 28.4472852], [77.1096265, 28.447851], [77.1063558, 28.4483763], [77.1037191, 28.4496983], [77.1036733, 28.4497885], [77.105601, 28.4498793]]]}, "properties": {"landuse": "construction"}}, {"type": "Feature", "geometry": {"type": "Polygon", "coordinates": [[[77.0905207, 28.4042313], [77.0916722, 28.4044996], [77.0916832, 28.4043708], [77.0914344, 28.4042775], [77.0914307, 28.4040715], [77.09176, 28.4040908], [77.0918588, 28.4034472], [77.090747, 28.4034648], [77.0905123, 28.4034954], [77.0905207, 28.4042313]]]}, "properties": {"landuse": "construction"}}, {"type": "Feature", "geometry": {"type": "Polygon", "coordinates": [[[77.0847677, 28.3983621], [77.0847677, 28.3978321], [77.0848187, 28.3978291], [77.084817, 28.39729], [77.0847728, 28.397287], [77.0847966, 28.3967345], [77.0865363, 28.3966925], [77.0865465, 28.3956473], [77.0861294, 28.3956414], [77.0861255, 28.3951037], [77.083387, 28.3951098], [77.0834151, 28.3959199], [77.0827093, 28.3959026], [77.0827065, 28.3956317], [77.0823874, 28.3956429], [77.0811323, 28.398376], [77.0847677, 28.3983621]]]}, "properties": {"landuse": "construction"}}, {"type": "Feature", "geometry": {"type": "Polygon", "coordinates": [[[77.0751564, 28.4000189], [77.0751848, 28.398143], [77.0745015, 28.3979018], [77.0745311, 28.3989728], [77.0739225, 28.3989726], [77.0739089, 28.400008], [77.0751564, 28.4000189]]]}, "properties": {"landuse": "construction"}}, {"type": "Feature", "geometry": {"type": "Polygon", "coordinates": [[[77.2031549, 28.6423667], [77.2035045, 28.64227], [77.2036799, 28.6421767], [77.2032497, 28.6415987], [77.2027972, 28.6418488], [77.2031549, 28.6423667]]]}, "properties": {"landuse": "construction"}}, {"type": "Feature", "geometry": {"type": "Polygon", "coordinates": [[[77.0985141, 28.4367244], [77.098869, 28.4369246], [77.0995018, 28.4369746], [77.0999773, 28.4370041], [77.1006503, 28.4370748], [77.1020097, 28.4371307], [77.1016648, 28.436321], [77.1025755, 28.4360148], [77.1016983, 28.4349725], [77.0997965, 28.4356939], [77.0985609, 28.4363976], [77.0978511, 28.4366596], [77.0985141, 28.4367244]]]}, "properties": {"landuse": "construction"}}, {"type": "Feature", "geometry": {"type": "Polygon", "coordinates": [[[77.0008786, 28.3998436], [77.0009297, 28.3998272], [77.000939, 28.4014981], [77.0016495, 28.4013714], [77.0022951, 28.4011917], [77.0022951, 28.4002235], [77.0029731, 28.4002112], [77.0029731, 28.399962], [77.0027966, 28.3997537], [77.0023043, 28.3997741], [77.0022997, 28.3992961], [77.001264, 28.3996148], [77.0012315, 28.3995372], [77.0008739, 28.3996515], [77.0008786, 28.3998436]]]}, "properties": {"landuse": "construction"}}, {"type": "Feature", "geometry": {"type": "Polygon", "coordinates": [[[77.2352177, 28.5639496], [77.2353685, 28.5639353], [77.2353617, 28.5638792], [77.2352109, 28.5638935], [77.2352177, 28.5639496]]]}, "properties": {"landuse": "construction"}}, {"type": "Feature", "geometry": {"type": "Polygon", "coordinates": [[[76.7846077, 28.4943238], [76.7861196, 28.4943184], [76.7861134, 28.4938283], [76.7859523, 28.4938065], [76.7859399, 28.4932401], [76.786572, 28.4932456], [76.7859585, 28.4921346], [76.7845643, 28.4921618], [76.7846077, 28.4943238]]]}, "properties": {"landuse": "construction"}}, {"type": "Feature", "geometry": {"type": "Polygon", "coordinates": [[[76.7866277, 28.4926792], [76.7873403, 28.4926683], [76.7872722, 28.4910999], [76.7870491, 28.4911707], [76.7860019, 28.4917153], [76.7866277, 28.4926792]]]}, "properties": {"landuse": "construction"}}, {"type": "Feature", "geometry": {"type": "Polygon", "coordinates": [[[77.2225863, 28.5789771], [77.2291848, 28.5786475], [77.2293135, 28.5759152], [77.2292036, 28.5753923], [77.2289032, 28.5754394], [77.228812, 28.5751803], [77.2261351, 28.5757267], [77.2262317, 28.5767867], [77.2255504, 28.5768479], [77.2256523, 28.5777901], [77.2247404, 28.5778702], [77.2246814, 28.5768385], [77.2223371, 28.577206], [77.2223747, 28.5777147], [77.2217846, 28.5777619], [77.2225863, 28.5789771]]]}, "properties": {"landuse": "construction"}}, {"type": "Feature", "geometry": {"type": "Polygon", "coordinates": [[[77.2083946, 28.6904425], [77.208537, 28.6907604], [77.2086718, 28.6907096], [77.2087162, 28.6908002], [77.2089672, 28.6907057], [77.20918, 28.6907374], [77.2095248, 28.6906038], [77.2095411, 28.6906361], [77.2096717, 28.6905855], [77.2096245, 28.6904918], [77.2097622, 28.6904385], [77.2097181, 28.6903421], [77.2093914, 28.6896403], [77.2086039, 28.6899224], [77.2083356, 28.6903201], [77.2083946, 28.6904425]]]}, "properties": {"landuse": "construction"}}, {"type": "Feature", "geometry": {"type": "Polygon", "coordinates": [[[77.1415238, 28.7948506], [77.1418205, 28.7948486], [77.1418145, 28.7941372], [77.1416129, 28.7941393], [77.1415185, 28.7942277], [77.1415238, 28.7948506]]]}, "properties": {"landuse": "construction"}}, {"type": "Feature", "geometry": {"type": "Polygon", "coordinates": [[[77.075679, 28.4162161], [77.0760522, 28.4163609], [77.0760522, 28.4160423], [77.0767254, 28.4160455], [77.0767913, 28.4147358], [77.077436, 28.4147392], [77.0774276, 28.4143918], [77.0775105, 28.414011], [77.0762022, 28.4135193], [77.0756241, 28.414961], [77.0754082, 28.4160391], [77.075679, 28.4162161]]]}, "properties": {"landuse": "construction"}}, {"type": "Feature", "geometry": {"type": "Polygon", "coordinates": [[[77.0788806, 28.4103517], [77.0802015, 28.4103678], [77.0801978, 28.4098271], [77.0829567, 28.4098464], [77.082953, 28.4082115], [77.0808967, 28.4081826], [77.0809113, 28.4077578], [77.0802271, 28.4077674], [77.0802161, 28.4087297], [77.0788697, 28.4087104], [77.0788806, 28.4103517]]]}, "properties": {"landuse": "construction"}}, {"type": "Feature", "geometry": {"type": "Polygon", "coordinates": [[[77.0841738, 28.3928746], [77.0841627, 28.3934592], [77.0849846, 28.3934495], [77.0849735, 28.3930364], [77.0854342, 28.3930344], [77.085432, 28.3929428], [77.0858197, 28.3929448], [77.085946, 28.3929584], [77.0852748, 28.3918457], [77.0841627, 28.3918515], [77.0841273, 28.3928727], [77.0841738, 28.3928746]]]}, "properties": {"landuse": "construction"}}, {"type": "Feature", "geometry": {"type": "Polygon", "coordinates": [[[77.1019307, 28.4048186], [77.1020196, 28.4038429], [77.1008127, 28.4038371], [77.1007015, 28.4039086], [77.1006998, 28.4041139], [77.0998587, 28.404103], [77.0998718, 28.4038475], [77.0995788, 28.4038567], [77.0995788, 28.4037923], [77.0995265, 28.4037946], [77.0994742, 28.4037371], [77.0993303, 28.4038015], [77.0992649, 28.4038682], [77.0987129, 28.4041766], [77.0983492, 28.4043676], [77.0980955, 28.4044251], [77.0974127, 28.4044504], [77.0973943, 28.4048831], [77.1019307, 28.4048186]]]}, "properties": {"landuse": "construction"}}, {"type": "Feature", "geometry": {"type": "Polygon", "coordinates": [[[77.2884588, 28.6191314], [77.2886544, 28.6187282], [77.2879905, 28.6184611], [77.2877861, 28.6188629], [77.2884588, 28.6191314]]]}, "properties": {"landuse": "construction"}}, {"type": "Feature", "geometry": {"type": "Polygon", "coordinates": [[[77.1738521, 28.7188383], [77.1739051, 28.7187739], [77.1737467, 28.7186738], [77.1736937, 28.7187382], [77.1738521, 28.7188383]]]}, "properties": {"landuse": "construction"}}, {"type": "Feature", "geometry": {"type": "Polygon", "coordinates": [[[77.1737945, 28.7189085], [77.1738521, 28.7188383], [77.1736937, 28.7187382], [77.173636, 28.7188084], [77.1737945, 28.7189085]]]}, "properties": {"landuse": "construction"}}, {"type": "Feature", "geometry": {"type": "Polygon", "coordinates": [[[77.1735722, 28.717898], [77.1736225, 28.717841], [77.1734759, 28.7177415], [77.1734256, 28.7177985], [77.1735722, 28.717898]]]}, "properties": {"landuse": "construction"}}, {"type": "Feature", "geometry": {"type": "Polygon", "coordinates": [[[77.2192357, 28.6163501], [77.2207735, 28.6162582], [77.2206931, 28.6152233], [77.2191553, 28.6153155], [77.2192357, 28.6163501]], [[77.2203757, 28.6155677], [77.2204086, 28.6159826], [77.2195815, 28.6160332], [77.2195486, 28.6156181], [77.2203757, 28.6155677]]]}, "properties": {"landuse": "construction"}}, {"type": "Feature", "geometry": {"type": "Polygon", "coordinates": [[[77.2210551, 28.6162473], [77.2225929, 28.6161553], [77.2225125, 28.6151205], [77.2209747, 28.6152127], [77.2210551, 28.6162473]], [[77.2221951, 28.6154649], [77.222228, 28.6158798], [77.2214009, 28.6159303], [77.221368, 28.6155153], [77.2221951, 28.6154649]]]}, "properties": {"landuse": "construction"}}, {"type": "Feature", "geometry": {"type": "Polygon", "coordinates": [[[77.2228876, 28.6161578], [77.2244253, 28.6160658], [77.2243449, 28.615031], [77.2228072, 28.6151232], [77.2228876, 28.6161578]], [[77.2240276, 28.6153754], [77.2240604, 28.6157903], [77.2232333, 28.6158408], [77.2232004, 28.6154258], [77.2240276, 28.6153754]]]}, "properties": {"landuse": "construction"}}, {"type": "Feature", "geometry": {"type": "Polygon", "coordinates": [[[77.2091354, 28.6114187], [77.210113, 28.6113787], [77.2100921, 28.6109832], [77.2091144, 28.611023], [77.2091354, 28.6114187]]]}, "properties": {"landuse": "construction"}}, {"type": "Feature", "geometry": {"type": "Polygon", "coordinates": [[[77.2090561, 28.6102898], [77.2100555, 28.6102499], [77.2100396, 28.6099401], [77.2090401, 28.6099798], [77.2090561, 28.6102898]]]}, "properties": {"landuse": "construction"}}, {"type": "Feature", "geometry": {"type": "Polygon", "coordinates": [[[77.2079562, 28.6106695], [77.2079673, 28.6108789], [77.2079964, 28.6113565], [77.2085327, 28.6113333], [77.2084599, 28.6100402], [77.2079239, 28.6100634], [77.2079562, 28.6106695]], [[77.2082343, 28.6101871], [77.2082564, 28.6105753], [77.2080852, 28.6105828], [77.208063, 28.6101947], [77.2082343, 28.6101871]], [[77.20826, 28.6108239], [77.2082821, 28.6112121], [77.2081109, 28.6112196], [77.2080887, 28.6108315], [77.20826, 28.6108239]]]}, "properties": {"landuse": "construction"}}, {"type": "Feature", "geometry": {"type": "Polygon", "coordinates": [[[77.2078594, 28.6116505], [77.2085242, 28.6116248], [77.2085186, 28.6115131], [77.2078538, 28.6115389], [77.2078594, 28.6116505]]]}, "properties": {"landuse": "construction"}}, {"type": "Feature", "geometry": {"type": "Polygon", "coordinates": [[[77.2075388, 28.6108962], [77.2079673, 28.6108789], [77.2079562, 28.6106695], [77.2075278, 28.6106869], [77.2075388, 28.6108962]]]}, "properties": {"landuse": "construction"}}, {"type": "Feature", "geometry": {"type": "Polygon", "coordinates": [[[77.2023733, 28.6115755], [77.2031522, 28.611535], [77.2031397, 28.6113508], [77.2023609, 28.6113914], [77.2023733, 28.6115755]]]}, "properties": {"landuse": "construction"}}, {"type": "Feature", "geometry": {"type": "Polygon", "coordinates": [[[77.2023551, 28.6159848], [77.202769, 28.6159637], [77.2027602, 28.6158306], [77.2023463, 28.6158517], [77.2023551, 28.6159848]]]}, "properties": {"landuse": "construction"}}, {"type": "Feature", "geometry": {"type": "Polygon", "coordinates": [[[77.202329, 28.6155675], [77.2027429, 28.6155465], [77.2027341, 28.6154134], [77.2023202, 28.6154345], [77.202329, 28.6155675]]]}, "properties": {"landuse": "construction"}}, {"type": "Feature", "geometry": {"type": "Polygon", "coordinates": [[[77.0298096, 28.5316702], [77.0301745, 28.5315634], [77.0303656, 28.5315285], [77.030378, 28.5311273], [77.0306907, 28.5311207], [77.0307056, 28.530846], [77.0304103, 28.5308416], [77.0303746, 28.5289667], [77.0310022, 28.5289671], [77.0310331, 28.5295137], [77.0316741, 28.5295243], [77.0321534, 28.5294672], [77.0303446, 28.527386], [77.030323, 28.528212], [77.0296236, 28.5282055], [77.0296236, 28.5284735], [77.0282769, 28.5284539], [77.0282694, 28.5288658], [77.0278453, 28.5290161], [77.0298096, 28.5316702]]]}, "properties": {"landuse": "construction"}}, {"type": "Feature", "geometry": {"type": "Polygon", "coordinates": [[[77.0541273, 28.5521834], [77.0540797, 28.5522463], [77.0546101, 28.5524714], [77.0552062, 28.551241], [77.0544313, 28.5514609], [77.054336, 28.5515866], [77.0540618, 28.5521258], [77.0541273, 28.5521834]]]}, "properties": {"landuse": "construction"}}, {"type": "Feature", "geometry": {"type": "Polygon", "coordinates": [[[77.0896094, 28.4521096], [77.0907009, 28.4523488], [77.0908476, 28.4511626], [77.0905077, 28.4511468], [77.0905077, 28.4504546], [77.0896023, 28.4504263], [77.0896094, 28.4521096]]]}, "properties": {"landuse": "construction"}}, {"type": "Feature", "geometry": {"type": "Polygon", "coordinates": [[[77.1467226, 28.694958], [77.1468584, 28.694992], [77.1482341, 28.6945601], [77.1478635, 28.6936602], [77.1464181, 28.6941154], [77.1467226, 28.694958]]]}, "properties": {"landuse": "construction"}}, {"type": "Feature", "geometry": {"type": "Polygon", "coordinates": [[[77.1460203, 28.6931343], [77.1474522, 28.6926812], [77.1471259, 28.6918877], [77.1457946, 28.6923035], [77.1457409, 28.6924547], [77.1460203, 28.6931343]]]}, "properties": {"landuse": "construction"}}, {"type": "Feature", "geometry": {"type": "Polygon", "coordinates": [[[77.1495495, 28.6931604], [77.1514714, 28.6925155], [77.1510115, 28.6914736], [77.149084, 28.6920897], [77.1495495, 28.6931604]]]}, "properties": {"landuse": "construction"}}, {"type": "Feature", "geometry": {"type": "Polygon", "coordinates": [[[77.0968793, 28.4328379], [77.0973657, 28.4325943], [77.0975492, 28.4329201], [77.0984028, 28.4324102], [77.0990534, 28.4329824], [77.0994399, 28.4327841], [77.098927, 28.4323409], [77.0988859, 28.4323054], [77.0988054, 28.4316314], [77.098269, 28.4316404], [77.0967859, 28.4316653], [77.0967666, 28.4324187], [77.0966506, 28.4324754], [77.0968793, 28.4328379]]]}, "properties": {"landuse": "construction"}}, {"type": "Feature", "geometry": {"type": "Polygon", "coordinates": [[[77.0990172, 28.436], [77.1014551, 28.434972], [77.100885, 28.4342211], [77.0985936, 28.4352603], [77.0990172, 28.436]]]}, "properties": {"landuse": "construction"}}, {"type": "Feature", "geometry": {"type": "Polygon", "coordinates": [[[77.0747221, 28.4520807], [77.0747704, 28.4507318], [77.0747282, 28.4506914], [77.0746698, 28.4506356], [77.0745072, 28.4504801], [77.0737324, 28.451069], [77.0747221, 28.4520807]]]}, "properties": {"landuse": "construction"}}, {"type": "Feature", "geometry": {"type": "Polygon", "coordinates": [[[77.0732022, 28.450522], [77.0739775, 28.4499044], [77.0736562, 28.4495927], [77.0728811, 28.4502103], [77.0732022, 28.450522]]]}, "properties": {"landuse": "construction"}}, {"type": "Feature", "geometry": {"type": "Polygon", "coordinates": [[[77.1511206, 28.6920735], [77.1513321, 28.6920035], [77.1512982, 28.691925], [77.1510866, 28.6919949], [77.1511206, 28.6920735]]]}, "properties": {"landuse": "construction"}}, {"type": "Feature", "geometry": {"type": "Polygon", "coordinates": [[[77.0300545, 28.4783772], [77.0302172, 28.4782418], [77.0305118, 28.4785278], [77.0303885, 28.4786101], [77.0305229, 28.4787271], [77.0304956, 28.4787506], [77.0305597, 28.4788079], [77.030522, 28.4788389], [77.0307808, 28.4790888], [77.0312374, 28.4787128], [77.0309148, 28.4784097], [77.0308273, 28.4784888], [77.0305364, 28.4782191], [77.0305512, 28.4782061], [77.0304255, 28.4780847], [77.0304945, 28.4780219], [77.0301507, 28.4776774], [77.029707, 28.4780501], [77.0300545, 28.4783772]]]}, "properties": {"landuse": "construction"}}, {"type": "Feature", "geometry": {"type": "Polygon", "coordinates": [[[77.1895974, 28.7063011], [77.1896908, 28.7062875], [77.1896058, 28.7060729], [77.1895054, 28.7061005], [77.1895974, 28.7063011]]]}, "properties": {"landuse": "construction"}}, {"type": "Feature", "geometry": {"type": "Polygon", "coordinates": [[[77.360723, 28.3132408], [77.3643279, 28.3132785], [77.3642262, 28.3129581], [77.3641154, 28.31264], [77.3639953, 28.3123246], [77.3639034, 28.3120995], [77.3638068, 28.3118759], [77.3637056, 28.3116539], [77.363019, 28.3116539], [77.363019, 28.3110305], [77.3623162, 28.3110305], [77.3618871, 28.3110872], [77.3605406, 28.312386], [77.360723, 28.3132408]]]}, "properties": {"landuse": "construction"}}, {"type": "Feature", "geometry": {"type": "Polygon", "coordinates": [[[77.3574185, 28.3067233], [77.3574614, 28.3068366], [77.3598111, 28.308773], [77.3599291, 28.3092548], [77.3604655, 28.3119373], [77.3634267, 28.3090092], [77.363244, 28.3087943], [77.3630549, 28.3085837], [77.3628595, 28.3083776], [77.3626579, 28.3081762], [77.3624504, 28.3079796], [77.3622246, 28.3077771], [77.3619924, 28.3075804], [77.361754, 28.3073894], [77.3615096, 28.3072044], [77.3612595, 28.3070256], [77.3610794, 28.3068879], [77.3608928, 28.3067571], [77.3607001, 28.3066334], [77.3605017, 28.3065169], [77.3602979, 28.306408], [77.360089, 28.3063067], [77.3598754, 28.3062132], [77.3596595, 28.3061285], [77.3594397, 28.3060518], [77.3592165, 28.3059833], [77.3589902, 28.3059231], [77.3587612, 28.3058713], [77.35853, 28.305828], [77.3582969, 28.3057933], [77.3580623, 28.3057672], [77.3578268, 28.3057497], [77.3575906, 28.305741], [77.3573542, 28.3057409], [77.3574185, 28.3067233]]]}, "properties": {"landuse": "construction"}}, {"type": "Feature", "geometry": {"type": "Polygon", "coordinates": [[[77.2113063, 28.6917079], [77.2123758, 28.6912793], [77.2119413, 28.6904451], [77.2108718, 28.6908737], [77.2113063, 28.6917079]]]}, "properties": {"landuse": "construction"}}, {"type": "Feature", "geometry": {"type": "Polygon", "coordinates": [[[77.5066742, 28.2728264], [77.507552, 28.2723518], [77.5072557, 28.2719266], [77.5063778, 28.2724011], [77.5066742, 28.2728264]]]}, "properties": {"landuse": "construction"}}, {"type": "Feature", "geometry": {"type": "Polygon", "coordinates": [[[77.5061066, 28.273539], [77.5064409, 28.2732461], [77.5058812, 28.2726807], [77.505554, 28.2730083], [77.5061066, 28.273539]]]}, "properties": {"landuse": "construction"}}, {"type": "Feature", "geometry": {"type": "Polygon", "coordinates": [[[77.1630937, 28.5924849], [77.163187, 28.5923206], [77.1625799, 28.5920547], [77.1624866, 28.592219], [77.1630937, 28.5924849]]]}, "properties": {"landuse": "construction"}}, {"type": "Feature", "geometry": {"type": "Polygon", "coordinates": [[[77.1193403, 28.5488968], [77.1235862, 28.5474831], [77.1232858, 28.5470567], [77.1191794, 28.5484562], [77.1193403, 28.5488968]]]}, "properties": {"landuse": "construction"}}, {"type": "Feature", "geometry": {"type": "Polygon", "coordinates": [[[76.8739967, 28.2709067], [76.8773377, 28.2707571], [76.8772505, 28.2692456], [76.8739095, 28.2693951], [76.8739967, 28.2709067]]]}, "properties": {"landuse": "construction"}}, {"type": "Feature", "geometry": {"type": "Polygon", "coordinates": [[[77.2145328, 28.7104526], [77.2157646, 28.7099388], [77.2159748, 28.7098515], [77.2161845, 28.7098032], [77.2164959, 28.7095328], [77.2159353, 28.7084293], [77.2139268, 28.7092664], [77.2145328, 28.7104526]]]}, "properties": {"landuse": "construction"}}, {"type": "Feature", "geometry": {"type": "Polygon", "coordinates": [[[77.0440411, 28.4976726], [77.0473482, 28.4976642], [77.0473609, 28.4970546], [77.0480451, 28.4970406], [77.0480704, 28.4965618], [77.0471645, 28.4965841], [77.0440316, 28.4966509], [77.0440411, 28.4976726]]]}, "properties": {"landuse": "construction"}}, {"type": "Feature", "geometry": {"type": "Polygon", "coordinates": [[[77.1023409, 28.4294059], [77.1038156, 28.4293956], [77.1038117, 28.4293229], [77.1039178, 28.4293264], [77.10391, 28.4296065], [77.1046217, 28.42961], [77.1045077, 28.4292192], [77.1044172, 28.4290912], [77.1040043, 28.428735], [77.1035403, 28.4283546], [77.103269, 28.4282059], [77.1029976, 28.4281264], [77.1025769, 28.428078], [77.1023016, 28.4280883], [77.1023409, 28.4294059]]]}, "properties": {"landuse": "construction"}}, {"type": "Feature", "geometry": {"type": "Polygon", "coordinates": [[[77.096956, 28.4251724], [77.0977124, 28.4251677], [77.0975192, 28.4246511], [77.0969453, 28.4246535], [77.096956, 28.4251724]]]}, "properties": {"landuse": "construction"}}, {"type": "Feature", "geometry": {"type": "Polygon", "coordinates": [[[77.0946236, 28.4245092], [77.0972965, 28.4244977], [77.0969782, 28.4239722], [77.0946204, 28.4240122], [77.0946236, 28.4245092]]]}, "properties": {"landuse": "construction"}}, {"type": "Feature", "geometry": {"type": "Polygon", "coordinates": [[[77.0985369, 28.4244462], [77.0985422, 28.4236079], [77.0980224, 28.4236054], [77.0980173, 28.4244436], [77.0985369, 28.4244462]]]}, "properties": {"landuse": "construction"}}, {"type": "Feature", "geometry": {"type": "Polygon", "coordinates": [[[77.0970517, 28.4227311], [77.097094, 28.4228228], [77.0971061, 28.4230008], [77.0970245, 28.4235111], [77.0976893, 28.4234978], [77.0976712, 28.422375], [77.0965807, 28.4224088], [77.0970517, 28.4227311]]]}, "properties": {"landuse": "construction"}}, {"type": "Feature", "geometry": {"type": "Polygon", "coordinates": [[[77.0983297, 28.4388907], [77.0989143, 28.4387651], [77.0980341, 28.4368488], [77.0973164, 28.4366746], [77.0983297, 28.4388907]]]}, "properties": {"landuse": "construction"}}, {"type": "Feature", "geometry": {"type": "Polygon", "coordinates": [[[77.0903296, 28.4390574], [77.0899398, 28.4394115], [77.0900243, 28.4394857], [77.0898911, 28.4396913], [77.0901412, 28.4400026], [77.0905601, 28.439994], [77.0908265, 28.4398313], [77.0912519, 28.4404795], [77.0915734, 28.4406337], [77.0914175, 28.4406937], [77.0916806, 28.4408251], [77.0919794, 28.4406223], [77.0922457, 28.440728], [77.0928335, 28.439797], [77.0923951, 28.4395029], [77.0920346, 28.4391773], [77.0919437, 28.4390317], [77.091148, 28.43942], [77.0909726, 28.4390973], [77.0908427, 28.4391002], [77.0902321, 28.4384405], [77.0898229, 28.4386318], [77.0903296, 28.4390574]]]}, "properties": {"landuse": "construction"}}, {"type": "Feature", "geometry": {"type": "Polygon", "coordinates": [[[77.0869671, 28.449172], [77.0869854, 28.4493795], [77.0872708, 28.449365], [77.0873787, 28.4496755], [77.0876348, 28.4496803], [77.0876403, 28.4494245], [77.0876257, 28.4493216], [77.0875617, 28.4493248], [77.0875415, 28.4491479], [77.0876092, 28.4488841], [77.0876605, 28.4489002], [77.0877501, 28.4484868], [77.0871592, 28.4486235], [77.0870549, 28.4489999], [77.0866213, 28.4489468], [77.0865683, 28.4493152], [77.0869671, 28.449172]]]}, "properties": {"landuse": "construction"}}, {"type": "Feature", "geometry": {"type": "Polygon", "coordinates": [[[77.1314819, 28.4477568], [77.1314857, 28.4466877], [77.1301174, 28.446684], [77.1301136, 28.447753], [77.1314819, 28.4477568]]]}, "properties": {"landuse": "construction"}}, {"type": "Feature", "geometry": {"type": "Polygon", "coordinates": [[[77.1132169, 28.4107361], [77.1145884, 28.410709], [77.1145653, 28.4101498], [77.1152703, 28.4101566], [77.1152665, 28.4095331], [77.1159271, 28.4095296], [77.1159213, 28.409211], [77.1158352, 28.4086736], [77.1156821, 28.4086211], [77.1152362, 28.4086364], [77.1152287, 28.4085471], [77.1138564, 28.4085605], [77.113868, 28.4096754], [77.1131899, 28.4096619], [77.1132169, 28.4107361]]]}, "properties": {"landuse": "construction"}}, {"type": "Feature", "geometry": {"type": "Polygon", "coordinates": [[[77.0480634, 28.5734173], [77.0483982, 28.5733465], [77.0489315, 28.5733193], [77.0493594, 28.5733302], [77.0497873, 28.5734228], [77.0504508, 28.5736624], [77.0510461, 28.5741253], [77.0514739, 28.5741634], [77.0532847, 28.5729708], [77.0533653, 28.5725515], [77.0514367, 28.5702751], [77.0512631, 28.5703949], [77.0508104, 28.5699429], [77.0504942, 28.5701879], [77.0501407, 28.5698721], [77.0500105, 28.5694582], [77.0485098, 28.5681892], [77.047406, 28.5708578], [77.0480634, 28.5734173]]]}, "properties": {"landuse": "construction"}}, {"type": "Feature", "geometry": {"type": "Polygon", "coordinates": [[[77.0390826, 28.4405763], [77.0396849, 28.4401083], [77.0388426, 28.4392699], [77.0382401, 28.4397381], [77.0390826, 28.4405763]]]}, "properties": {"landuse": "construction"}}, {"type": "Feature", "geometry": {"type": "Polygon", "coordinates": [[[77.0307726, 28.451451], [77.0311773, 28.4505781], [77.0293411, 28.4499229], [77.0287966, 28.4509926], [77.0307726, 28.451451]]]}, "properties": {"landuse": "construction"}}, {"type": "Feature", "geometry": {"type": "Polygon", "coordinates": [[[76.9641054, 28.4480663], [76.9642223, 28.4482034], [76.9668582, 28.4462405], [76.9646627, 28.4436525], [76.9637091, 28.444514], [76.9641054, 28.4480663]]]}, "properties": {"landuse": "construction"}}, {"type": "Feature", "geometry": {"type": "Polygon", "coordinates": [[[76.9681975, 28.4453021], [76.9686846, 28.4449823], [76.9679506, 28.4440856], [76.9685222, 28.4435259], [76.9688275, 28.4438572], [76.9692692, 28.4435316], [76.9686716, 28.4426178], [76.9691783, 28.4423208], [76.9685027, 28.4414984], [76.9678922, 28.441624], [76.9673855, 28.4416126], [76.9659306, 28.4426807], [76.9681975, 28.4453021]]]}, "properties": {"landuse": "construction"}}, {"type": "Feature", "geometry": {"type": "Polygon", "coordinates": [[[76.9444594, 28.4429676], [76.9468925, 28.4430136], [76.9469925, 28.4413138], [76.9443975, 28.4413975], [76.9444594, 28.4429676]]]}, "properties": {"landuse": "construction"}}]}